LocalCode:42;Name;state;city;zip_code;latitude;longitude;OfficeAddress;id;FoundingDate;closedDate;acquiredDate;object_id;BusinessField;NumContributors;NumPartners
1005;Bandsintown;CA;San Diego;92101;42.35888;-71.05682;;c:6669;01.01.2007;;04.10.2018;c:6669;music;1;3
204;TriCipher;CA;Los Gatos;95032;37.238916;-121.973718;;c:16283;01.01.2000;;30.04.2019;c:16283;enterprise;4.75;9
1001;Plixi;CA;San Diego;92121;32.901049;-117.192656;San Diego CA 92121;c:65620;18.03.2009;;12.07.2019;c:65620;web;4;5
738;Solidcore Systems;CA;Cupertino;95014;37.320309;-122.05004;Cupertino CA 95014;c:42668;01.01.2002;;07.08.2017;c:42668;software;3.3333;5
1002;Inhale Digital;CA;San Francisco;94105;37.779281;-122.419236;San Francisco CA 94105;c:65806;01.08.2010;03.03.2018;;c:65806;games_video;1;2
379;Matisse Networks;CA;Mountain View;94043;37.406914;-122.09037;Mountain View CA 94043;c:22898;01.01.2002;17.04.2016;;c:22898;network_hosting;3;3
195;RingCube Technologies;CA;Mountain View;94041;37.3915589;-122.0702643;;c:16191;01.01.2005;;04.10.2016;c:16191;software;1.6667;6
875;ClairMail;CA;San Rafael;94901;38.057107;-122.513742;;c:5192;01.01.2004;;10.09.2017;c:5192;finance;3.5;25
16;VoodooVox;MA;Williamstown;1267;42.712207;-73.203599;Williamstown MA 1267;c:1043;01.01.2002;;20.11.2017;c:1043;mobile;4;13
846;Doostang;CA;Palo Alto;94306;37.427235;-122.145783;;c:498;01.06.2005;;17.02.2015;c:498;web;1;14
685;Zong;CA;Menlo Park;94025;37.4429885;-122.1624131;;c:3949;15.11.2000;;31.01.2015;c:3949;mobile;1;22
835;Center'd;CA;Menlo Park;94025;37.452992;-122.185098;;c:4829;01.01.2006;05.07.2018;;c:4829;web;1.75;8
531;Resonant Vibes;KY;Louisville;40204;38.241467;-85.724511;;c:30290;01.01.2004;06.08.2016;;c:30290;web;1;0
137;drop.io;NY;Brooklyn;11201;40.70276;-73.986668;;c:1491;26.11.2007;;28.07.2017;c:1491;education;2.3333;15
162;Stratavia;CO;Denver;80202;39.7462728;-104.9911572;;c:15645;01.01.2001;;01.12.2019;c:15645;software;2.5;12
898;Invicta Networks;VA;Vienna;22182;38.901301;-77.265158;Vienna VA 22182;c:54177;01.01.1999;24.02.2015;;c:54177;public_relations;1;0
235;QSecure;CA;Los Altos;94022;37.3962827;-122.105531;;c:16770;01.01.2003;07.11.2016;;c:16770;security;3.5;8
25;MeeVee;CA;Burlingame;94010;37.590339;-122.341715;;c:107;01.07.2000;;29.09.2016;c:107;games_video;3.5;7
858;SinglePlatform;NY;New York;10004;40.730646;-73.986614;New York NY 10004;c:50727;01.01.2010;;02.09.2015;c:50727;web;5;10
454;Bling Nation;CA;Palo Alto;94301;37.446411;-122.16054;;c:26368;01.01.2007;10.05.2015;;c:26368;enterprise;1;13
369;Metreos Corporation;TX;Austin;78735;30.2350399;-97.8001299;;c:22291;01.01.2001;;28.04.2016;c:22291;software;1.5;8
289;Hidden City Games;WA;Seattle;98122;47.6026054;-122.2848651;;c:17857;01.01.2004;30.12.2017;;c:17857;other;1;3
177;Neopolitan Networks;CA;Palo Alto;94306;37.426316;-122.141082;;c:15888;01.01.2002;11.07.2019;;c:15888;web;2;1
26;Pixelpipe;CA;San Francisco;94103;37.764395;-122.401024;;c:10751;01.01.2008;29.11.2015;;c:10751;mobile;2;4
803;EventVue;CO;Boulder;80302;40.010492;-105.276843;;c:458;01.05.2007;19.02.2015;;c:458;public_relations;1;5
797;BridgePort Networks;IL;Chicago;60601;41.875555;-87.624421;Chicago IL 60601;c:45525;01.01.2002;;15.03.2015;c:45525;software;4;3
572;Scalent Systems;CA;Palo Alto;94303;37.429676;-122.1085482;;c:3193;01.01.2003;;28.04.2018;c:3193;public_relations;4;7
503;IQ Engines;CA;Berkeley;94704;37.870102;-122.268136;Berkeley CA 94704;c:28456;01.06.2008;;30.07.2015;c:28456;photo_video;2;2
642;RetailMeNot, Inc.;TX;Austin;78701;30.2653441;-97.7435857;;c:36920;01.05.2007;;26.05.2018;c:36920;web;1.75;37
625;Mophie;CA;Santa Ana;92705;33.708708;-117.852069;Santa Ana CA 92705;c:35712;24.05.2005;;13.04.2016;c:35712;hardware;2;5
355;Airship Ventures;CA;Moffett Field;94035;37.422859;-122.045217;Moffett Field CA 94035;c:21492;01.01.2007;06.02.2016;;c:21492;other;2;3
510;Lockdown Networks;WA;Seattle;98119;47.603832;-122.330062;Seattle WA 98119;c:28768;01.01.2001;;27.03.2016;c:28768;public_relations;1.5;6
485;eMinor;NC;Durham;27701;36.002893;-78.904075;;c:27741;01.10.2006;29.04.2016;;c:27741;software;1;9
145;Karma;CA;San Francisco;94105;37.779281;-122.419236;San Francisco CA 94105;c:150658;01.01.2011;;26.08.2018;c:150658;mobile;5;3
605;Zipano;PA;Pittsburgh;15219;40.441694;-79.990086;Pittsburgh PA 15219;c:34338;01.06.2009;09.06.2015;;c:34338;security;1;2
785;Entertainment Media Works;NY;New York;10011;40.73901;-73.997259;New York NY 10011;c:45111;01.07.2004;05.11.2016;;c:45111;software;1;1
562;Elastra;CA;San Francisco;94111;37.791137;-122.391843;;c:3178;01.01.2007;28.06.2017;;c:3178;software;2;8
619;RPO;CA;San Jose;95134;37.404788;-121.940842;San Jose CA 95134;c:35402;01.01.2005;18.08.2015;;c:35402;hardware;4.5;0
378;Fotomoto;CA;San Francisco;94107;37.7795014;-122.3948712;;c:22856;01.10.2008;;25.12.2014;c:22856;ecommerce;2.3333;10
63;Peer39;NY;New York;10010;40.755446;-73.980246;;c:1224;01.03.2006;;18.09.2019;c:1224;advertising;2.75;18
65;Vitrue;GA;Atlanta;30303;33.756806;-84.392198;;c:1234;01.05.2006;;03.10.2019;c:1234;enterprise;3;26
139;Trendslide;NH;Manchester;3101;42.99564;-71.454789;Manchester NH 3101;c:149809;01.08.2011;;12.05.2016;c:149809;mobile;1;9
98;PublicEarth;CA;Menlo Park;94025;40.0157332;-105.275027;;c:13733;01.01.2008;12.06.2019;;c:13733;travel;1;7
681;Azaleos;WA;Seattle;98102;47.63609;-122.327028;;c:39106;11.05.2004;;06.02.2015;c:39106;enterprise;2;10
884;Efficient Frontier;CA;Sunnyvale;94089;37.4049731;-122.0323525;;c:5306;01.01.2002;;11.12.2015;c:5306;advertising;3;25
207;NetDevices;CA;Sunnyvale;94085;37.36883;-122.03635;Sunnyvale CA 94085;c:16303;01.01.2003;;07.01.2019;c:16303;software;5;4
747;Go Try It On;NY;New York;100011;40.730646;-73.986614;New York NY 100011;c:43188;01.12.2009;;05.11.2016;c:43188;fashion;2;2
593;Performable;MA;Cambridge;2139;42.3751;-71.105616;Cambridge MA 2139;c:33507;17.10.2009;;26.03.2015;c:33507;software;1;9
1010;Appstores.com;CA;San Francisco;94607;37.779281;-122.419236;San Francisco CA 94607;c:68157;24.05.2010;;20.07.2015;c:68157;software;9.5;6
403;Fortify Software;CA;San Mateo;94404;37.560781;-122.284114;;c:2395;01.10.2002;;08.01.2019;c:2395;software;2;11
666;iCurrent;CA;South San Francisco;94080;37.658313;-122.391032;South San Francisco CA 94080;c:38220;01.01.2006;;12.08.2018;c:38220;web;1;5
847;AisleBuyer;MA;Boston;2210;42.360253;-71.058291;Boston MA 2210;c:49815;01.01.2009;;03.03.2015;c:49815;mobile;1;4
421;Indeed;TX;Austin;78731;30.321464;-97.75501;Austin TX 78731;c:249;01.11.2004;;24.07.2016;c:249;web;3;12
364;Colubris Networks;MA;Waltham;2451;42.37564;-71.2358;Waltham MA 2451;c:22027;01.01.2000;;20.05.2019;c:22027;public_relations;5;9
31;Mashery;CA;San Francisco;94103;37.7870842;-122.4038047;;c:109;01.05.2006;;21.07.2016;c:109;enterprise;5;37
768;Transparency Software;CA;Palo Alto;94301;37.441537;-122.158332;Palo Alto CA 94301;c:43948;01.01.2004;15.07.2018;;c:43948;software;1;0
1059;Viewdle;CA;Palo Alto;95128;37.445586;-122.161929;Palo Alto CA 95128;c:765;01.01.2006;;03.06.2015;c:765;analytics;2;13
320;Enclarity;CA;Aliso Viejo;92656;33.5842816;-117.7306817;;c:19257;01.02.2005;;04.08.2019;c:19257;consulting;2;18
445;Virsto Software;CA;Sunnyvale;94089;37.402773;-122.052551;;c:25827;01.07.2007;;28.08.2017;c:25827;software;3.3333;10
950;Handmark;MO;Kansas City;64106;39.103151;-94.581908;;c:5932;01.07.2000;;05.03.2015;c:5932;mobile;4.5;6
617;Viacor;MA;Wilmington;1887;42.546483;-71.173667;Wilmington MA 1887;c:35157;01.12.1999;18.07.2016;;c:35157;biotech;2;10
1112;Carbonetworks;CA;San Francisco;94111;37.805289;-122.404448;;c:8596;01.01.2005;05.11.2015;;c:8596;cleantech;1;6
332;SchemaLogic;WA;Kirkland;;47.675489;-122.191667;Kirkland WA 98033-6314;c:19861;01.01.2001;;18.02.2017;c:19861;enterprise;3;2
787;Skyway Software;FL;Tampa;33609;27.951849;-82.456397;Tampa FL 33609;c:45114;01.01.2001;14.08.2017;;c:45114;software;1;0
396;CardStar;MA;Boston;;42.360253;-71.058291;Boston MA 02111-1720;c:23533;01.12.2008;;19.11.2019;c:23533;software;3;5
431;Makani Power;CA;Alameda;94501;37.7831775;-122.3086191;;c:25325;01.01.2006;;29.09.2018;c:25325;cleantech;1;4
1101;Myrio;WA;Bothell;98011;47.765758;-122.184304;;c:8351;01.12.1999;07.01.2019;;c:8351;software;1;5
13;Intela;CO;Boulder;80302;40.730646;-73.986614;;c:10392;02.02.2006;;25.09.2019;c:10392;advertising;2;4
452;Sana Security;CA;San Mateo;;37.54763;-122.307887;;c:26128;01.01.2000;;21.06.2019;c:26128;security;2;7
492;Sportgenic;CA;San Francisco;94104;37.790485;-122.40094;;c:2808;01.09.2005;;20.05.2018;c:2808;advertising;3.3333;9
20;Lolapps;CA;San Francisco;94105;37.7870923;-122.3999719;;c:10581;01.01.2008;;17.10.2018;c:10581;web;3;15
315;Behavio;CA;Sunnyvale;94087;37.3492097;-122.0326019;;c:190214;12.06.2012;;08.10.2016;c:190214;software;1;3
231;Infinity Box;FL;Tampa;33626;28.098905;-82.400087;;c:1674;01.01.2006;;14.07.2017;c:1674;web;1.5;10
245;adBrite;CA;San Francisco;94103;37.779026;-122.40184;;c:170;01.01.2003;;06.01.2019;c:170;advertising;1.6667;17
484;Texert;TX;Dallas;75001;32.9583632;-96.8215658;;c:27740;01.01.2007;25.03.2018;;c:27740;software;1;1
810;Mendocino Software;CA;Fremont;94538;37.54827;-121.988572;Fremont CA 94538;c:46186;01.01.2003;27.08.2015;;c:46186;software;4;2
744;QuikCycle;CA;Santa Clara;95051;37.354469;-121.990433;Santa Clara CA 95051;c:43162;01.01.1998;15.05.2016;;c:43162;software;1;0
748;Instagram;CA;San Francisco;94107;37.779281;-122.419236;San Francisco CA 94107;c:43233;01.03.2010;;12.09.2019;c:43233;photo_video;4;12
138;Motionbox;NY;New York;10004;40.606061;-73.822331;;c:1498;01.01.2006;;28.04.2019;c:1498;games_video;2.6667;10
555;AccelGolf;MA;Cambridge;2138;42.3751;-71.105616;Cambridge MA 2138;c:31514;01.08.2008;15.09.2017;;c:31514;mobile;1;4
943;MoPub;CA;San Francisco;94105;37.779281;-122.419236;San Francisco CA 94105;c:58944;09.09.2010;;29.05.2017;c:58944;mobile;2.25;11
703;DNP Green Technology;NJ;Princeton;8540;40.349274;-74.659296;Princeton NJ 8540;c:40197;01.01.2008;09.04.2015;;c:40197;cleantech;6;2
863;Abound Solar;CO;Loveland;80538;40.397761;-105.07498;Loveland CO 80538;c:51023;01.01.2007;26.04.2019;;c:51023;cleantech;1;5
85;Trovix;CA;Mountain View;94043;37.420428;-122.090769;;c:13168;01.01.2002;;04.03.2017;c:13168;search;2.5;3
995;Thumbplay;NY;New York;10012;40.725435;-73.997395;;c:649;01.09.2004;;31.05.2019;c:649;music;4;13
883;Plethora Technology;WV;Kearneysville;25430;39.388156;-77.885552;Kearneysville WV 25430;c:52694;01.01.2000;17.12.2015;;c:52694;software;3;1
541;DailyStrength;CA;Los Angeles;90025;34.043948;-118.468204;;c:3080;01.04.2006;;28.12.2014;c:3080;web;1;7
501;Danotek Motion Technologies;MI;Canton;48187;42.350749;-83.444589;;c:28424;01.01.2001;09.06.2017;;c:28424;cleantech;3.6667;2
491;Yub;CA;Mountain View;94041;37.388869;-122.072353;Mountain View CA 94041;c:280611;01.01.2013;24.08.2018;;c:280611;ecommerce;9;7
537;SNAPin Software;WA;Bellevue;98004;47.614018;-122.19655;;c:30537;01.01.2003;;04.02.2015;c:30537;software;4.5;5
125;Azuro;CA;Santa Clara;95054;37.406217;-121.976473;;c:14656;01.01.2002;;17.11.2016;c:14656;semiconductor;4;5
279;ARPU;DC;Washington;20007;37.09024;-95.712891;;c:1766;01.05.2005;15.08.2015;;c:1766;advertising;3.5;1
242;BookFresh;CA;San Francisco;94105;37.779281;-122.419236;San Francisco CA 94105;c:16938;01.01.2007;;10.06.2018;c:16938;web;5;7
1097;Singly;CA;San Francisco;94110;37.779281;-122.419236;San Francisco CA 94110;c:83265;21.12.2010;;11.04.2015;c:83265;analytics;7;24
387;TxVia;NY;New York;10173;40.753881;-73.978852;;c:23136;01.01.2006;;19.02.2017;c:23136;finance;4;8
895;Blue Vector Systems;CA;Mountain View;94043;37.406914;-122.09037;Mountain View CA 94043;c:54066;01.01.2002;24.08.2016;;c:54066;public_relations;3;1
251;Open Kernel Labs;IL;Chicago;60606;41.878984;-87.637;;c:17219;01.01.2006;;27.07.2017;c:17219;software;2;3
390;Elanti Systems;NJ;Somerset;8873;40.535316;-74.521435;;c:23234;01.01.2007;07.02.2015;;c:23234;software;3;1
1023;Astrid;CA;San Francisco;94105;37.779281;-122.419236;San Francisco CA 94105;c:70586;01.01.2008;;20.08.2019;c:70586;social;3;7
459;Nordic Windpower;CA;Berkeley;94710;37.863464;-122.3153453;;c:26612;01.01.2007;12.12.2015;;c:26612;cleantech;2.6667;3
930;Visiprise;GA;Alpharetta;30009;34.070958;-84.274733;Alpharetta GA 30009;c:57923;01.01.1985;09.02.2017;;c:57923;software;7;2
934;Hubspan;WA;Seattle;98104;39.78373;-100.445882;Seattle WA 98104;c:58133;01.01.2000;;24.10.2016;c:58133;software;4;1
917;iConclude;WA;Bellevue;98004;47.614422;-122.192337;Bellevue WA 98004;c:5587;01.01.2005;;01.06.2018;c:5587;software;2.3333;5
670;41st Parameter;CA;San Jose;95128;37.314002;-121.932365;San Jose CA 95128;c:38338;01.01.2004;;23.02.2019;c:38338;security;3;16
811;Aardvark;CA;San Francisco;94110;37.748676;-122.415813;;c:4622;01.07.2007;;06.06.2016;c:4622;web;4;21
339;Hotelicopter;VA;Charlottesville;22902;38.030823;-78.48158;;c:202;01.06.2006;28.04.2017;;c:202;web;1;4
163;Anystream;VA;Dulles;20166;39.035298;-77.430125;;c:15652;01.01.2000;;19.03.2019;c:15652;software;2;9
121;CakeStyle;IL;Chicago;60607;39.78373;-100.445882;Chicago IL 60607;c:144825;01.08.2011;08.11.2019;;c:144825;web;1;2
1149;Fluther;CA;San Francisco;94110;37.758062;-122.418642;;c:9772;01.01.2007;;10.11.2019;c:9772;web;7;5
316;Pocket Communications Northeast;CT;Bloomfield;6002;41.853615;-72.70375;;c:19101;01.01.2006;27.02.2018;;c:19101;mobile;2;0
187;Goodreads;CA;Santa Monica;60401;34.01052;-118.495981;;c:1612;15.01.2007;;21.06.2017;c:1612;web;4;11
274;Woven Systems;CA;Santa Clara;95054;37.3821368;-121.970505;;c:17620;01.01.2003;;27.08.2015;c:17620;network_hosting;2.5;1
763;Kolorific;CA;Milpitas;;37.433646;-121.886704;Milpitas CA 95035-6261;c:43873;01.01.2003;26.07.2019;;c:43873;semiconductor;1;0
695;Krugle;CA;Menlo Park;94025;37.45604;-122.165399;;c:3986;01.01.2006;;29.01.2017;c:3986;search;4;10
973;Flud;CA;San Diego;92101;32.721834;-117.161797;San Diego CA 92101;c:61592;01.10.2010;19.12.2015;;c:61592;enterprise;1;12
618;Chomp;CA;San Francisco;94103;37.779281;-122.419236;San Francisco CA 94103;c:35236;09.09.2009;;29.04.2017;c:35236;mobile;3.5;10
574;Origen Therapeutics;CA;Burlingame;94010;37.584103;-122.366082;Burlingame CA 94010;c:31968;01.01.1997;10.06.2015;;c:31968;biotech;1;0
483;Inlet Technologies;NC;Raleigh;27606;35.76524;-78.731161;;c:27620;01.01.2003;;21.05.2017;c:27620;network_hosting;3.6667;3
1151;ShopWiki;NY;New York;10011;40.740441;-73.993376;;c:9816;01.06.2005;;10.11.2019;c:9816;ecommerce;1;12
881;Fondu;NY;New York;10001;40.750519;-73.993494;New York NY 10001;c:52566;01.02.2010;;06.09.2018;c:52566;web;6;4
841;Loudcaster;MA;Somerville;2143;42.387597;-71.099497;Somerville MA 2143;c:49236;01.08.2009;28.05.2018;;c:49236;web;1;1
370;TwoFish;CA;Redwood City;94065;37.522281;-122.258139;;c:2234;01.01.2006;;02.08.2017;c:2234;ecommerce;2.5;6
615;Workstreamer;TX;Austin;78701;40.694599;-73.990638;;c:3505;01.10.2009;02.09.2019;;c:3505;enterprise;1;7
925;Qwiki;NY;New York;10003;40.729839;-73.991781;New York NY 10003;c:56989;01.10.2009;;30.11.2016;c:56989;photo_video;6.3333;14
506;Redwood Systems;CA;Fremont;94538;37.54827;-121.988572;Fremont CA 94538;c:28482;01.01.2008;;14.03.2017;c:28482;cleantech;2.25;14
704;Artisan Pharma;MA;Waltham;2451;42.37564;-71.2358;Waltham MA 2451;c:40324;01.01.2006;;06.02.2016;c:40324;biotech;4.6667;2
179;Bill Me Later;MD;Timonium;21093;39.436844;-76.618704;Timonium MD 21093;c:1595;01.01.2000;;25.04.2019;c:1595;web;2.5;6
550;Bueda;PA;Pittsburgh;15213;40.441694;-79.990086;Pittsburgh PA 15213;c:31294;04.01.2009;11.03.2015;;c:31294;advertising;1;3
764;Defywire;VA;Reston;20191;38.958402;-77.357974;Reston VA 20191;c:43875;01.01.2003;30.07.2015;;c:43875;mobile;3;2
218;Silicon Clocks;CA;Fremont;94538;37.554214;-121.977451;;c:16562;01.01.2004;;03.02.2019;c:16562;semiconductor;3.5;2
299;TheMarkets;NY;New York;10019;40.762674;-73.9821315;;c:18075;01.01.2000;;28.03.2018;c:18075;web;5;2
1114;Netgamix Inc;IL;Chicago;60606;41.875555;-87.624421;Chicago IL 60606;c:86120;24.09.2010;04.04.2015;;c:86120;games_video;1;6
58;Sentrigo;CA;Santa Clara;95054;37.55911;-122.303493;;c:12173;01.10.2006;;17.10.2019;c:12173;software;2;9
782;Netli;CA;Palo Alto;94303;37.440682;-122.123103;Palo Alto CA 94303;c:44650;01.01.2000;;18.08.2019;c:44650;network_hosting;7;9
1020;Define My Style;OH;Cincinnati;45202;39.099909;-84.504243;Cincinnati OH 45202;c:70021;01.02.2010;20.04.2016;;c:70021;web;3;4
280;Firethorn;GA;Atlanta;30305;33.749099;-84.390185;Atlanta GA 30305;c:17660;01.01.2001;;08.01.2017;c:17660;mobile;1;1
873;Wellcore;CA;San Jose;95134;37.404788;-121.940842;San Jose CA 95134;c:51745;01.01.2007;22.07.2016;;c:51745;hardware;1;1
430;Taligen Therapeutics;MA;Cambridge;2142;42.3634664;-71.0786638;;c:25324;01.01.2004;;09.02.2017;c:25324;biotech;3.5;4
1065;Adap.tv;CA;San Mateo;94403;37.551441;-122.291435;;c:77;01.11.2006;;22.03.2015;c:77;advertising;2.5;27
312;Current Media;CA;San Francisco;94107;37.7795182;-122.3902619;;c:1895;01.01.2005;10.12.2017;;c:1895;network_hosting;1;12
220;ParAccel;CA;Campbell;95008;37.3166526;-122.05074;;c:16593;01.01.2007;;14.09.2018;c:16593;analytics;5.3333;13
206;Arch Rock Corporation;CA;San Francisco;;37.783171;-122.392901;;c:16289;01.01.2005;;04.05.2016;c:16289;software;3;6
928;SpiralFrog;NY;New York;10014;37.09024;-95.712891;;c:575;01.01.2004;29.11.2015;;c:575;games_video;1;8
158;Plusmo;CA;Santa Clara;95054;37.400367;-121.985711;;c:15562;01.06.2006;;14.01.2016;c:15562;mobile;1;4
979;ZipList;VA;Sterling;20166;39.001619;-77.403201;Sterling VA 20166;c:62432;01.01.2010;;18.03.2017;c:62432;web;2;9
1085;Involver;CA;San Francisco;94105;37.788653;-122.401333;;c:8100;01.01.2007;;01.07.2018;c:8100;software;2.5;11
977;Lionside;CA;San Francisco;94107;37.779281;-122.419236;San Francisco CA 94107;c:62262;01.01.2009;;20.02.2016;c:62262;games_video;3;6
639;Game Trust;NY;New York;10011;40.73901;-73.997259;New York NY 10011;c:3686;01.01.2002;;16.11.2016;c:3686;software;4;3
1092;Nearbuy Systems;CA;San Mateo;94403;37.5484187;-122.3151646;;c:82805;01.04.2010;;24.06.2017;c:82805;analytics;2;4
327;Visible Path;CA;Foster City;94404;37.55818;-122.276454;;c:196;01.01.2002;;26.11.2018;c:196;web;4;5
494;VT Silicon;GA;Atlanta;30308;33.774486;-84.385448;;c:28114;01.01.2002;24.03.2017;;c:28114;semiconductor;1;2
87;GetBack;CA;Los Angeles;90025;34.0342337;-118.4536137;;c:13277;01.09.2007;24.04.2017;;c:13277;web;1;1
985;Slipstream;CA;Oakland;94609;37.835676;-122.263548;Oakland CA 94609;c:63217;01.06.2010;23.10.2018;;c:63217;web;1;1
432;HipLogic;CA;Fremont;94538;37.5541073;-121.9756765;;c:2534;01.01.2005;;27.01.2016;c:2534;mobile;2.5;10
882;Dilithium Networks;CA;Petaluma;94954;38.279431;-122.668452;;c:5264;01.01.2001;04.02.2019;;c:5264;mobile;5.2;12
937;Yobongo;CA;San Francisco;94107;37.7824533;-122.3879489;;c:58512;01.01.2010;;20.01.2015;c:58512;web;10;2
77;Brickfish;IL;Chicago;60601;41.8851542;-87.6223183;;c:12957;01.11.2005;;10.03.2017;c:12957;software;1;17
608;MyEnergy;MA;Boston;2109;42.360253;-71.058291;Boston MA 2109;c:34499;04.06.2007;;30.12.2016;c:34499;web;3;12
601;LikeList;CA;Sunnyvale;94085;37.36883;-122.03635;Sunnyvale CA 94085;c:34028;01.01.2008;24.06.2016;;c:34028;web;1;5
392;Social Collective;VA;Arlington;22201;38.881717;-77.089398;;c:23335;17.04.2009;18.12.2016;;c:23335;web;1;3
535;Pure Networks;WA;Seattle;98101;47.60732;-122.335746;;c:30526;01.01.2002;;14.02.2019;c:30526;network_hosting;3;5
736;Internet Pawn;CO;Centennial;80112;39.568064;-104.977831;Centennial CO 80112;c:42519;01.01.2009;18.05.2018;;c:42519;finance;1;0
836;NeuroTherapeutics Pharma;IL;Chicago;60631;41.940611;-87.835972;Chicago IL 60631;c:48376;01.01.2006;10.12.2016;;c:48376;biotech;4;5
165;Provade;CA;San Mateo;94404;37.560155;-122.285588;;c:15693;01.01.2004;;29.12.2018;c:15693;enterprise;1;5
828;Infineta Systems;CA;San Jose;95134;37.404788;-121.940842;San Jose CA 95134;c:47587;01.01.2008;24.04.2018;;c:47587;software;2.5;4
227;Challenge Games;TX;Austin;78701;30.268236;-97.740651;;c:1669;01.01.2006;;14.09.2017;c:1669;network_hosting;1.5;11
725;Crowd Factory;CA;San Francisco;94114;37.758229;-122.439512;;c:421;01.01.2009;;18.06.2017;c:421;advertising;3;6
159;Friendsignia;TN;Memphis;;35.149022;-90.051628;Memphis TN 38103-4717;c:155621;29.01.2012;22.05.2018;;c:155621;web;1;2
709;Vizibility;NY;New York;10013;40.730646;-73.986614;New York NY 10013;c:40782;01.07.2009;;23.08.2019;c:40782;mobile;3;5
868;OpenFeint;CA;Burlingame;;37.5783263;-122.3485679;;c:51306;01.01.2008;;29.12.2015;c:51306;games_video;1;6
30;Tumblr;NY;New York;10016;40.743808;-73.983626;;c:1088;01.02.2007;;05.07.2017;c:1088;web;3.5;30
609;Hotlist;NY;New York;10013;40.730646;-73.986614;New York NY 10013;c:34522;01.01.2008;05.02.2015;;c:34522;social;1;8
1102;Crashlytics;MA;Cambridge;2139;42.3751;-71.105616;Cambridge MA 2139;c:83692;01.02.2011;;26.04.2017;c:83692;mobile;6;5
760;BridgePoint Medical;MN;Plymouth;55441;45.006515;-93.46651;Plymouth MN 55441;c:43831;01.01.2005;;11.10.2018;c:43831;medical;3;7
502;Recurve;CA;San Francisco;94104;37.777741;-122.412198;;c:28428;01.08.2005;;19.11.2015;c:28428;software;2;5
295;Conformity;TX;Austin;78730;30.35504;-97.801083;;c:17974;01.07.2007;25.04.2017;;c:17974;enterprise;1;14
1087;Moprise;WA;Seattle;98104;39.78373;-100.445882;Seattle WA 98104;c:81475;01.01.2010;12.12.2018;;c:81475;enterprise;1;6
1060;Plizy;CA;San Francisco;94108;37.779281;-122.419236;San Francisco CA 94108;c:76543;01.09.2010;26.08.2016;;c:76543;photo_video;1;5
1105;ShopRunner;PA;Conshohocken;19428;40.0708709;-75.302716;;c:84161;01.01.2010;;09.09.2015;c:84161;ecommerce;1;4
1084;RatePoint;MA;Needham;2494;42.296111;-71.238524;;c:810;01.09.2006;26.10.2015;;c:810;software;1;13
215;Digital Performance;CA;Newport Beach;92660;33.63776;-117.855989;;c:16488;01.01.2002;16.01.2019;;c:16488;advertising;2;3
35;Gowalla;TX;Austin;78701;30.2729209;-97.7443863;;c:11042;28.08.2007;;01.01.2015;c:11042;web;6;21
276;Copan Systems;CO;Longmont;80501;40.138979;-105.124465;;c:17633;01.01.2002;;27.02.2017;c:17633;network_hosting;6.5;8
569;Replay Solutions;CA;Redwood City;94063;37.512318;-122.200914;;c:3187;01.01.2004;;10.01.2018;c:3187;software;2;13
216;Turf Geography Club;NY;New York;10012;40.728425;-73.999882;New York NY 10012;c:164922;01.01.2011;26.11.2017;;c:164922;mobile;3;2
1090;skyrockit;CA;San Francisco;94108;37.779281;-122.419236;San Francisco CA 94108;c:81886;01.01.2001;15.01.2019;;c:81886;mobile;1;0
901;Cartavi;IL;Naperville;60563;41.800255;-88.149362;;c:54585;01.01.2009;;25.02.2015;c:54585;enterprise;1;7
46;Cramster;CA;Pasadena;91101;34.147047;-118.148896;;c:11507;01.01.2002;;19.08.2016;c:11507;web;1;5
419;Certify Data Systems;CA;San Jose;95128;37.317847;-121.948469;;c:24860;01.01.2004;;28.08.2016;c:24860;enterprise;1;4
135;Wheelz;CA;San Francisco;94103;37.779281;-122.419236;San Francisco CA 94103;c:148750;01.01.2011;;23.04.2017;c:148750;automotive;3;15
798;CentrePath;MA;Waltham;2451;42.37564;-71.2358;Waltham MA 2451;c:45611;01.01.2000;;13.04.2017;c:45611;software;2.5;4
712;VoxPop Network Corporation;CA;San Francisco;94111;37.8093381;-122.4166061;;c:4106;01.08.2006;;04.06.2015;c:4106;games_video;3;5
286;OpVista;CA;Milpitas;95035;37.4384108;-121.9240273;;c:17775;01.01.2000;10.09.2017;;c:17775;software;1;2
115;Metaweb Technologies;CA;San Francisco;94105;37.775196;-122.419204;;c:144;01.01.2005;;14.12.2018;c:144;web;3.5;7
81;DocVerse;CA;San Francisco;94105;37.788115;-122.397141;;c:13046;01.09.2007;;03.10.2016;c:13046;web;4;8
699;Veoh;CA;San Diego;92121;32.902266;-117.20834;;c:40;01.01.2004;;26.06.2019;c:40;games_video;5;15
456;BzzAgent;MA;Boston;2118;42.341899;-71.065924;;c:26460;01.01.2001;;06.09.2019;c:26460;advertising;2;16
176;Hammerhead Systems;CA;Mountain View;94043;37.40006;-122.049689;;c:15887;01.01.2002;10.01.2018;;c:15887;hardware;6;2
638;ThermalTherapeuticSystems;PA;Pittsburgh;15218;40.418851;-79.904163;Pittsburgh PA 15218;c:36742;01.06.2006;03.04.2018;;c:36742;medical;3;3
691;GuardianEdge Technologies;CA;San Mateo;94404;37.778613;-122.395289;;c:3962;01.01.2002;;26.05.2018;c:3962;software;3.3333;10
196;Gradient X;CA;Santa Monica;90405;34.019657;-118.487549;Santa Monica CA 90405;c:162116;01.01.2012;;18.04.2019;c:162116;mobile;9;5
906;ezzai - how to arabia;IL;Warrenville;60555;41.817807;-88.173402;Warrenville IL 60555;c:55044;01.08.2010;10.10.2016;;c:55044;web;2;1
1033;rPath;NC;Raleigh;27607;35.79181;-78.74123;;c:7207;01.04.2005;25.08.2018;;c:7207;enterprise;2.75;8
1115;Boomi;PA;Berwyn;19312;40.063476;-75.457492;;c:863;01.03.2000;;12.10.2016;c:863;enterprise;1.5;4
183;VoloMedia;CA;Sunnyvale;94086;37.382376;-122.037607;;c:16066;01.01.2005;16.08.2017;;c:16066;advertising;2;4
363;Flixster;CA;San Francisco;94103;37.766909;-122.406676;;c:220;20.01.2006;;26.10.2018;c:220;web;2.6667;12
894;Wesabe;CA;San Francisco;94104;37.793148;-122.402567;;c:54;01.12.2005;09.02.2017;;c:54;web;1.5;3
1147;OfferLounge;CA;Morgan Hill;95037;26.0524615;-80.1378809;;c:9730;01.01.2008;29.11.2018;;c:9730;public_relations;2;3
549;NeoEdge Networks;CA;Mountain View;94041;37.393679;-122.079017;;c:3122;02.05.2002;;01.08.2015;c:3122;advertising;1.6667;10
636;SemiSouth Laboratories;TX;Austin;78729;30.435079;-97.770139;Austin TX 78729;c:36579;01.07.2000;20.06.2016;;c:36579;semiconductor;3;0
750;Camiant;MA;Marlborough;;42.345927;-71.552287;Marlborough MA 01752-4603;c:43327;01.01.2003;;17.11.2019;c:43327;software;2.5;3
291;NuConomy;CA;San Francisco;94115;37.795191;-122.430411;;c:1789;01.01.2006;;01.09.2015;c:1789;advertising;2;4
671;Flowtown;CA;San Francisco;94110;37.779281;-122.419236;San Francisco CA 94110;c:38339;01.02.2009;;08.01.2019;c:38339;analytics;9;6
90;GlobalCrypto;GA;Atlanta;30308;33.776834;-84.3895875;;c:13410;01.06.2006;25.09.2015;;c:13410;software;2;0
766;Bioenvision;NY;New York;10154;40.730646;-73.986614;New York NY 10154;c:43915;01.01.1996;27.06.2015;;c:43915;biotech;3;3
653;Teranetics;CA;San Jose;95134;37.404788;-121.940842;San Jose CA 95134;c:37712;01.01.2000;;30.07.2016;c:37712;semiconductor;5.3333;5
587;WebVisible;CA;Playa Vista;90094;33.97279;-118.427578;Playa Vista CA 90094;c:3288;01.01.2001;08.01.2017;;c:3288;software;1.3333;33
7;GoodGuide;CA;San Francisco;94111;37.7983181;-122.4000032;;c:10179;01.12.2007;;16.12.2017;c:10179;web;3;14
596;ViVu;CA;Cupertino;95014;37.320309;-122.05004;Cupertino CA 95014;c:33869;01.01.2009;;24.11.2015;c:33869;messaging;2.5;7
356;avVenta;NY;New York;10013;40.730646;-73.986614;New York NY 10013;c:21528;01.01.2005;;13.05.2017;c:21528;advertising;1;10
542;DiJiPOP;RI;Providence;2906;51.43247;-2.664213;Providence RI 2906;c:30820;01.11.2008;;21.07.2019;c:30820;advertising;1.5;6
443;Layer 7 Technologies;DC;Washington;20005;38.897976;-77.028561;;c:25782;01.01.2003;;27.07.2017;c:25782;software;2;3
487;DeliveryEdge;CA;San Francisco;94107;37.781689;-122.391061;;c:278;01.09.2006;26.07.2018;;c:278;ecommerce;1;6
1050;Solmentum;CA;San Francisco;94105;37.779281;-122.419236;San Francisco CA 94105;c:75500;01.07.2009;02.06.2018;;c:75500;cleantech;4;4
1009;Pipewise;CA;San Francisco;94105;37.787249;-122.3990501;;c:67806;01.09.2010;29.07.2016;;c:67806;enterprise;1;16
55;GridNetworks;WA;Seattle;98104;47.602873;-122.336132;;c:1212;01.01.2004;25.03.2015;;c:1212;network_hosting;2;7
560;MAP Pharmaceuticals;CA;Mountain View;;39.78373;-100.445882;Mountain View CA 94043-1107;c:31754;01.01.2003;;27.08.2016;c:31754;biotech;6;1
429;ORCA, Inc.;NY;New York;10016;40.745003;-73.983229;;c:25307;01.01.2008;;19.03.2017;c:25307;ecommerce;3;5
307;Amobee;CA;Redwood City;94065;37.52845;-122.263721;;c:1870;01.05.2005;;07.05.2018;c:1870;advertising;2.3333;25
475;KOTURA;CA;Monterey Park;91754;34.045919;-118.16525;;c:27285;01.01.2004;;27.10.2017;c:27285;cleantech;4.5;4
837;Auvitek International;TX;Plano;75023;33.068275;-96.711101;Plano TX 75023;c:48640;01.03.2004;10.12.2016;;c:48640;semiconductor;4;32
305;Outright;CA;Mountain View;94041;37.287285;-121.942932;;c:18470;01.06.2008;;26.10.2015;c:18470;enterprise;3.5;12
354;Phurnace Software;TX;Austin;78701;30.271393;-97.748623;;c:21395;01.01.2007;;01.05.2015;c:21395;software;2;9
426;FastSoft;CA;Pasadena;91105;34.142973;-118.140553;;c:25132;01.01.2006;;05.11.2017;c:25132;software;1;7
1032;GrandCentral;CA;Fremont;94538;37.465645;-121.932202;;c:72;01.04.2006;;21.02.2015;c:72;mobile;1;9
261;Speedshape;MI;Bingham Farms;48025;42.548008;-83.214753;;c:17429;01.01.2003;01.07.2015;;c:17429;advertising;1;2
838;BlueLithium;CA;San Jose;95128;37.32052;-121.948399;;c:487;01.01.2004;;08.06.2018;c:487;advertising;2;15
707;Media Chaperone;IL;Chicago;60657;41.875555;-87.624421;Chicago IL 60657;c:40665;01.01.2009;31.05.2018;;c:40665;web;1;2
523;Giant Realm;NY;New York;10036;40.7566658;-73.9827553;;c:2972;01.01.2007;;03.07.2015;c:2972;web;2;13
303;Invite Media;PA;Philadelphia;10011;39.951311;-75.169522;;c:1832;01.02.2007;;27.10.2017;c:1832;advertising;1.6667;17
529;UpMo;CA;Mountain View;94043;37.406914;-122.09037;Mountain View CA 94043;c:30173;01.01.2011;03.08.2017;;c:30173;enterprise;3;11
267;Appscio;CA;Freedom;;36.9397206;-121.7768449;;c:17512;01.01.2006;28.12.2016;;c:17512;software;1;4
1098;Eons;MA;Boston;2129;42.375219;-71.056101;;c:833;01.01.2005;27.08.2015;;c:833;network_hosting;3.5;14
971;LocaModa;MA;Cambridge;2142;42.358822;-71.104329;;c:615;01.01.2007;;16.10.2016;c:615;advertising;2;8
258;Meraki;CA;San Francisco;94110;37.392443;-122.072517;;c:1731;01.04.2006;;18.08.2018;c:1731;network_hosting;2.25;16
693;MPOWER Mobile;TX;Austin;78701;30.280148;-97.749908;Austin TX 78701;c:39755;01.01.2005;11.05.2015;;c:39755;mobile;1;1
89;Haute Secure;WA;Seattle;98109;47.638456;-122.356965;;c:134;01.01.2006;;12.06.2016;c:134;security;1.5;5
984;Intelliworks;MD;Bethesda;20814;39.116333;-77.181307;;c:6313;01.12.2004;;14.10.2015;c:6313;enterprise;2.5;6
27;Meridian;OR;Portland;97209;45.520247;-122.674195;Portland OR 97209;c:107746;01.03.2011;;28.02.2016;c:107746;enterprise;3;6
437;Kluster;NY;New York;10016;40.723652;-73.985281;;c:2566;01.01.2008;;10.07.2016;c:2566;web;1;0
827;International Battery;PA;Allentown;18106;40.602206;-75.471279;Allentown PA 18106;c:47440;01.01.2008;16.12.2015;;c:47440;cleantech;1;0
770;Jingle Networks;NY;New York;10016;37.480999;-122.173887;;c:44;01.09.2005;;30.12.2017;c:44;mobile;3.1667;12
536;SemEquip;MA;North Billerica;;42.5656454;-71.3222696;;c:30527;01.01.2000;;18.04.2019;c:30527;semiconductor;2;3
1096;ItsGoinOn;CA;Los Angeles;90017;34.054935;-118.244476;Los Angeles CA 90017;c:83176;01.05.2010;11.01.2017;;c:83176;games_video;1;3
343;mSnap;CO;Denver;80202;39.750152;-104.996438;Denver CO 80202;c:20488;01.06.2005;;29.01.2017;c:20488;mobile;1;6
412;Biofisica;GA;Duluth;30097;34.062588;-84.16923;;c:24570;01.01.2000;30.08.2015;;c:24570;biotech;3;5
344;Ardian;CA;Mountain View;94043;37.406914;-122.09037;Mountain View CA 94043;c:20506;01.01.2003;;20.03.2016;c:20506;biotech;4;8
1016;Tracelytics;RI;Providence;2903;51.43247;-2.664213;Providence RI 2903;c:69279;01.07.2010;;13.10.2016;c:69279;enterprise;4;8
389;Canopy Financial;CA;San Francisco;94105;37.791388;-122.392148;;c:23192;01.01.2004;21.09.2018;;c:23192;finance;1;6
661;Kyte;CA;San Francisco;94102;37.788482;-122.409173;;c:38;01.12.2006;;23.02.2015;c:38;games_video;3;11
1042;Ounce Labs;MA;Waltham;2451;42.393662;-71.255855;;c:7376;01.10.2002;;01.06.2018;c:7376;software;2.5;7
185;Crossbeam Systems;MA;Boxborough;1719;42.496515;-71.480233;;c:16070;01.01.2000;;02.01.2016;c:16070;security;5.5;13
890;PacketHop;CA;Redwood City;94065;37.534538;-122.252466;Redwood City CA 94065;c:53814;01.01.2002;23.07.2017;;c:53814;public_relations;4;2
891;Inaura;UT;Salt Lake City;84124;40.767013;-111.890431;Salt Lake City UT 84124;c:53831;01.01.2007;20.09.2017;;c:53831;other;1;3
405;DynaPump;TX;The Woodlands;77380;30.161661;-95.471256;;c:24040;01.01.1992;07.06.2018;;c:24040;cleantech;1;0
708;Immunet Corporation;CA;Palo Alto;94306;37.424298;-122.139809;Palo Alto CA 94306;c:40762;01.07.2008;;23.08.2018;c:40762;software;2;3
1049;CopperEgg Corporation;TX;Austin;78701;30.280148;-97.749908;Austin TX 78701;c:75008;01.06.2010;;07.12.2016;c:75008;enterprise;1.5;3
330;Wink;CA;Mountain View;94041;37.40047;-122.072981;;c:197;19.08.2004;;06.06.2015;c:197;search;2;5
544;PopularMedia;CA;San Francisco;94103;37.767575;-122.411157;;c:3087;01.01.2003;;21.11.2018;c:3087;advertising;2.5;8
383;Miyowa;CA;San Francisco;94105;37.779281;-122.419236;San Francisco CA 94105;c:23098;14.04.2003;;22.11.2016;c:23098;mobile;2;3
802;Intrusic;MA;Burlington;1803;42.504817;-71.195611;Burlington MA 1803;c:45792;01.01.2001;30.08.2015;;c:45792;software;1;1
646;Dashwire;WA;Seattle;98103;47.603832;-122.330062;Seattle WA 98103;c:37215;11.08.2006;;31.08.2019;c:37215;mobile;1.6667;10
552;Reddit;CA;San Francisco;94107;37.780883;-122.395257;;c:314;01.01.2005;;16.11.2016;c:314;web;1;9
697;Pure Digital Technologies;CA;San Francisco;94108;37.779281;-122.419236;San Francisco CA 94108;c:3991;01.09.2001;;24.06.2017;c:3991;hardware;4;11
239;Voxify;CA;Alameda;94501;37.789429;-122.276524;Alameda CA 94501;c:16892;01.01.2001;;15.04.2016;c:16892;enterprise;3.6667;5
672;EvoApp;NC;Durham;27701;35.986906;-78.896718;Durham NC 27701;c:38460;01.01.2009;01.07.2017;;c:38460;analytics;9.5;8
996;Visual Revenue;NY;New York;10001;40.750519;-73.993494;New York NY 10001;c:64959;01.03.2010;;23.05.2019;c:64959;analytics;3;5
634;Calibra Medical;CA;Redwood City;94063;37.484347;-122.225803;Redwood City CA 94063;c:36484;01.01.2004;;29.06.2018;c:36484;biotech;5;1
825;Offermatic;CA;San Mateo;94401;37.566009;-122.321646;San Mateo CA 94401;c:47270;01.02.2010;19.05.2019;;c:47270;web;3;6
263;HiWired;MA;Needham;2494;42.2960173;-71.2128734;;c:17433;01.01.2004;;08.11.2017;c:17433;software;1.5;2
119;DateMyFamily.com;FL;Weston;33327;26.106273;-80.41894;Weston FL 33327;c:144687;11.11.2011;12.11.2017;;c:144687;social;1;4
1004;Hyperic;CA;Palo Alto;94304;37.4027811;-122.1441615;;c:6592;01.01.2004;;09.10.2015;c:6592;software;2;4
610;Optimal;CA;San Francisco;94104;37.779281;-122.419236;San Francisco CA 94104;c:34545;01.01.2008;;24.03.2019;c:34545;advertising;5;10
246;SendMeHome.com;CA;Santa Barbara;93101;34.430786;-119.715074;;c:17030;01.07.2008;18.06.2016;;c:17030;games_video;2;2
88;Q-magic;CA;Palo Alto;94301;37.448944;-122.161415;;c:13358;01.02.2007;29.03.2018;;c:13358;public_relations;1;3
22;Geodelic Systems;CA;Los Angeles;90034;34.005914;-118.488129;;c:10610;01.01.2008;27.07.2018;;c:10610;mobile;2;8
1014;BlockBeacon;CA;Santa Monica;90401;34.019657;-118.487549;Santa Monica CA 90401;c:68470;01.01.2012;;20.10.2015;c:68470;web;1;12
8;PostPath;CA;Mountain View;94041;37.390501;-122.081151;;c:10197;01.01.2003;;31.03.2018;c:10197;web;2.5;2
595;Attune Systems;CA;Santa Clara;95054;37.386778;-121.966277;Santa Clara CA 95054;c:33771;01.01.1999;21.02.2018;;c:33771;hardware;1;6
757;TokBox;CA;San Francisco;94107;37.779507;-122.39071;;c:437;01.05.2007;;12.11.2016;c:437;messaging;3.6667;27
175;Avega Systems;CA;Mountain View;94040;37.391642;-122.093935;Mountain View CA 94040;c:15870;01.01.2005;28.02.2016;;c:15870;hardware;3;2
336;Heartscape;MD;Columbia;;39.2328783;-76.8204666;;c:20062;01.01.2000;;13.04.2016;c:20062;biotech;1;6
493;PeerMe;CA;Mountain View;94043;37.419819;-122.090188;;c:281;01.01.2004;22.02.2016;;c:281;games_video;3;2
333;Pacinian;WA;SPOKANE;99202;47.657943;-117.421226;SPOKANE WA 99202;c:19869;01.04.2007;22.07.2019;;c:19869;hardware;1;3
1091;neoSaej;MA;Burlington;1803;42.485691;-71.19862;;c:8251;01.01.2006;02.08.2015;;c:8251;web;1;1
962;Kiha Software;WA;Seattle;98104;39.78373;-100.445882;Seattle WA 98104;c:60243;01.01.2008;14.09.2018;;c:60243;software;1;1
867;Vlingo;MA;Cambridge;2138;42.372912;-71.118999;;c:513;01.06.2006;;24.12.2016;c:513;mobile;2;18
321;Tizor Systems;MA;Maynard;1754;42.432106;-71.453968;Maynard MA 1754;c:19483;01.01.2002;;03.11.2019;c:19483;enterprise;5;4
842;Cerona Networks;MD;Frederick;21703;39.414219;-77.410927;Frederick MD 21703;c:49341;01.01.2002;21.11.2016;;c:49341;public_relations;1;0
561;Oorja Protonics;CA;Fremont;94538;37.54827;-121.988572;Fremont CA 94538;c:31764;01.01.2004;24.09.2015;;c:31764;cleantech;1;1
876;Hurricane Party;TX;Austin;78701;30.280148;-97.749908;Austin TX 78701;c:51969;01.05.2010;14.09.2017;;c:51969;mobile;1;5
75;Minekey;CA;Sunnyvale;94085;37.384239;-122.012475;;c:1284;01.01.2005;18.08.2015;;c:1284;web;1;10
404;Blip;NY;New York;10012;40.728425;-73.999882;New York NY 10012;c:24029;01.05.2005;;30.12.2017;c:24029;games_video;2;23
226;Fabkids;CA;San Francisco;94105;37.779281;-122.419236;San Francisco CA 94105;c:166772;01.01.2012;;15.04.2017;c:166772;ecommerce;2;8
954;CafeBots;CA;Palo Alto;94306;37.424298;-122.139809;Palo Alto CA 94306;c:59709;01.01.2010;19.05.2017;;c:59709;web;1;5
50;Avaak;CA;San Diego;92121;32.897274;-117.201076;;c:11888;01.01.2004;;10.06.2019;c:11888;mobile;3.5;2
172;Newfield Design;ME;West Newfield;4095;43.643967;-70.923675;West Newfield ME 4095;c:158294;01.01.2008;06.01.2015;;c:158294;manufacturing;3;0
938;Savored;NY;New York;10011;40.73901;-73.997259;New York NY 10011;c:58550;01.01.2010;;21.04.2016;c:58550;hospitality;4;12
698;Digg;CA;San Francisco;94107;37.764726;-122.394523;;c:4;11.10.2004;;23.01.2019;c:4;news;4.6667;57
128;Songza;NY;Long Island City;11101;40.7473113;-73.9549182;;c:1475;01.11.2007;;29.11.2016;c:1475;music;8;9
386;Bigfoot Networks;CA;Redwood City;94065;37.536402;-122.325129;;c:23134;01.01.2006;;24.06.2016;c:23134;hardware;2.3333;12
790;Kongregate;CA;San Francisco;94105;37.786942;-122.401245;;c:453;01.01.2006;;22.08.2016;c:453;games_video;2;5
526;Powerset;CA;San Francisco;94107;37.778613;-122.395289;;c:30;01.10.2006;;01.10.2018;c:30;search;4;20
496;Kiptronic;CA;San Francisco;94104;37.792394;-122.402349;;c:282;01.05.2005;;22.08.2018;c:282;advertising;2;10
986;Cozi Group;WA;Seattle;98104;39.78373;-100.445882;Seattle WA 98104;c:6340;03.03.2005;07.07.2017;;c:6340;web;1;16
1140;Likewise Software;WA;Bellevue;98007;47.582658;-122.135282;;c:9599;01.11.2004;;23.10.2016;c:9599;software;3;4
988;Lifestander;NY;NY;10011;40.73901;-73.997259;NY NY 10011;c:63621;01.09.2010;06.04.2018;;c:63621;web;2;1
425;Jaxtr;CA;Menlo Park;94025;37.451026;-122.18676;;c:251;01.10.2005;;10.02.2019;c:251;mobile;3.3333;16
64;MX Logic;CO;Englewood;80112;39.540323;-104.857271;;c:12285;01.01.2002;;21.03.2017;c:12285;security;5;5
1119;Metaplace;CA;Solana Beach;90275;33.020832;-117.077311;;c:885;01.07.2006;;17.04.2019;c:885;games_video;4;5
247;TravelMuse;NY;New York;10004;37.402802;-122.117418;;c:1704;16.04.2007;;06.08.2018;c:1704;web;2;9
955;Jambool;CA;San Francisco;94105;37.782101;-122.389519;;c:5986;01.08.2006;;04.05.2017;c:5986;finance;2.5;9
399;Zipcar;GA;NW Atlanta;30309;33.7862629;-84.3877936;;c:23756;31.10.2000;;23.05.2015;c:23756;transportation;2;35
745;Hitpost;CA;San Francisco;94107;37.7822788;-122.392978;;c:43172;01.04.2009;;27.06.2017;c:43172;sports;3.6667;16
345;Home-Account;CA;San Francisco;94107;37.778551;-122.391686;;c:20637;01.11.2008;;08.01.2016;c:20637;finance;5.5;5
335;PayParade Pictures;PA;Bala Cynwyd;19004;40.012771;-75.239234;;c:20033;17.10.2007;08.05.2017;;c:20033;games_video;2;3
94;Planet Metrics;CA;San Bruno;94066;37.628328;-122.420814;;c:13504;01.01.2007;14.09.2019;;c:13504;cleantech;1;2
566;kwiry;CA;San Francisco;94108;37.7885714;-122.4035985;;c:3185;01.01.2006;16.02.2015;;c:3185;mobile;1;5
1034;imeem;CA;San Francisco;94107;37.779624;-122.391236;;c:725;01.11.2003;;29.03.2015;c:725;music;2.4;13
107;Amadesa;IL;Evanston;60201;42.055849;-87.694664;;c:13921;15.05.2005;18.07.2019;;c:13921;software;2;15
411;Cast Iron Systems;CA;Mountain View;94043;37.4305755;-122.0971389;;c:24549;01.01.2001;;27.03.2015;c:24549;enterprise;4.5;10
952;Aptera;CA;Carlsbad;92010;33.133524;-117.254593;;c:5952;01.01.2003;22.12.2014;;c:5952;automotive;1.5;3
746;RentJuice;CA;San Francisco;94111;37.779281;-122.419236;San Francisco CA 94111;c:43183;01.01.2008;;03.11.2017;c:43183;real_estate;1.6667;7
723;Verari Systems;CA;San Diego;92121;32.901049;-117.192656;San Diego CA 92121;c:41968;01.01.1996;18.10.2016;;c:41968;hardware;5;1
903;Parascale;CA;Cupertino;95014;37.316653;-122.05074;;c:5485;01.01.2005;;09.05.2016;c:5485;network_hosting;2;8
1123;Geni;CA;West Hollywood;90069;34.090368;-118.393064;;c:9;01.06.2006;;10.10.2017;c:9;web;1.3333;13
148;Zentact;CA;San Franciso;94111;37.794891;-122.397901;;c:15129;01.09.2008;30.07.2018;;c:15129;network_hosting;1;3
597;Outside.in;NY;New York;10010;40.7043822;-73.9865717;;c:339;01.08.2006;;29.08.2018;c:339;web;5.8;9
1145;Salesforce Buddy Media;NY;New York;10001;40.756054;-73.986951;;c:967;01.09.2007;;31.08.2015;c:967;enterprise;3.8;24
515;Vizu Corporation;CA;San Francisco;94017;37.797435;-122.403175;;c:2925;14.02.2005;;29.12.2018;c:2925;advertising;4;10
1113;Zing Systems;CA;Mountain View;94041;37.388077;-122.08316;;c:86;01.06.2007;;26.06.2015;c:86;games_video;2.5;10
1019;DynamicOps;MA;Burlington;1803;42.504817;-71.195611;Burlington MA 1803;c:69834;01.01.2008;;07.04.2019;c:69834;enterprise;2;6
776;Movero Technology;TX;Austin;78759;30.409765;-97.75101;Austin TX 78759;c:44434;01.01.2003;;23.07.2018;c:44434;enterprise;2;5
705;Elevation Pharmaceuticals;CA;San Diego;92130;32.962655;-117.189656;San Diego CA 92130;c:40417;01.01.2007;;21.12.2018;c:40417;biotech;4.3333;2
311;Punch Entertainment;CA;Palo Alto;94303;37.4233698;-122.0986859;;c:18897;10.05.2005;20.10.2016;;c:18897;software;1;4
753;Stickybits;NY;New York;10003;40.729839;-73.991781;New York NY 10003;c:43416;01.01.2009;14.03.2018;;c:43416;web;2.5;7
398;Ecast;CA;San Francisco;94108;37.779281;-122.419236;San Francisco CA 94108;c:23692;01.01.1999;05.06.2019;;c:23692;games_video;4.5;9
495;lifeIO;NY;New York;10013;40.730646;-73.986614;New York NY 10013;c:28162;29.08.2006;10.07.2017;;c:28162;web;5;4
174;EdgeCast Networks;CA;Santa Monica;90405;34.049767;-118.459387;;c:1587;01.08.2006;;12.12.2017;c:1587;network_hosting;1.75;19
467;Sirific Wireless;TX;Richardson;75081;32.945354;-96.708874;Richardson TX 75081;c:26988;01.01.2000;;24.04.2019;c:26988;semiconductor;7;3
455;Revetto;MI;Zeeland;49464;42.8138649;-86.023846;;c:26390;01.01.2009;22.11.2017;;c:26390;web;1;3
579;ZoomSafer;VA;Herndon;20170;38.969532;-77.385948;Herndon VA 20170;c:32094;01.01.2009;;28.04.2017;c:32094;mobile;1.5;3
683;AkaRx;NJ;Paramus;7652;40.944543;-74.075419;Paramus NJ 7652;c:39364;01.01.2005;;19.06.2018;c:39364;biotech;2;1
872;Lama Lab;PA;Pittsburgh;15213;40.441694;-79.990086;Pittsburgh PA 15213;c:51623;01.01.2009;12.08.2017;;c:51623;enterprise;1;0
1116;Buysight;CA;Palo Alto;94306;37.425359;-122.1389633;;c:8676;01.01.2008;;05.11.2015;c:8676;advertising;3.6667;18
1063;TripIt;CA;San Francisco;94110;37.764169;-122.402021;;c:767;01.10.2006;;30.12.2014;c:767;travel;1.6667;14
959;Pinch Media;NY;New York;10010;40.757929;-73.985506;;c:6011;01.04.2008;;28.12.2018;c:6011;software;3.5;6
563;Enstratius;MN;Minneapolis;55311;44.9773;-93.265469;Minneapolis MN 55311;c:31794;01.01.2009;;05.10.2018;c:31794;enterprise;2;7
1;Jumptap;MA;Boston;2210;42.368633;-71.075305;;c:10054;01.01.2005;;27.10.2016;c:10054;mobile;4.5;45
111;WiChorus;CA;San Jose;95134;37.409096;-121.943191;;c:14036;01.01.2005;;22.03.2015;c:14036;mobile;2.5;18
664;Hatteras Networks;NC;Durham;27713;35.996653;-78.901805;Durham NC 27713;c:38123;01.01.2000;;13.03.2018;c:38123;software;3.5;26
229;Focus;CA;San Francisco;94111;37.793949;-122.398062;;c:16709;01.08.2005;25.02.2019;;c:16709;enterprise;1;7
820;easy2comply (Dynasec);NY;New York;10005;40.730646;-73.986614;New York NY 10005;c:46901;01.01.2002;;07.04.2017;c:46901;software;3;4
298;Socialize;CA;San Francisco;94107;38.88521;-76.998641;;c:18056;01.07.2008;;17.11.2017;c:18056;mobile;1;5
86;Clearwire;WA;Kirkland;98033;30.6324797;-86.9843446;;c:13219;01.10.2003;;11.12.2018;c:13219;mobile;4.25;19
780;CREDANT Technologies;TX;Addison;75001;32.960431;-96.83026;Addison TX 75001;c:44576;01.01.2001;;20.05.2016;c:44576;security;5;6
905;Exclusively.in;NY;New York;10001;40.750519;-73.993494;New York NY 10001;c:55043;01.01.2010;;03.05.2017;c:55043;fashion;2.5;4
565;Avidia;CA;Mountain View;94043;37.406914;-122.09037;Mountain View CA 94043;c:31832;01.01.2003;;31.07.2018;c:31832;advertising;4.5;3
862;PayDivvy;CA;Irvine;92612;33.685697;-117.825982;Irvine CA 92612;c:51021;06.03.2009;;05.02.2017;c:51021;social;1;3
739;Octavian;MA;Woburn;1801;42.479262;-71.152277;Woburn MA 1801;c:42672;01.01.2003;22.02.2019;;c:42672;software;2.5;2
78;KickApps;NY;New York;10011;40.7516611;-73.9843328;;c:130;01.03.2004;;09.10.2019;c:130;enterprise;3;22
829;Airwide Solutions;MA;Burlington;1803;42.504817;-71.195611;Burlington MA 1803;c:47601;01.01.2004;;25.12.2016;c:47601;software;5;3
958;Localocracy;MA;Boston;2210;42.360253;-71.058291;Boston MA 2210;c:60087;01.01.2009;;18.02.2015;c:60087;web;1;4
418;Pixable;NY;New York City;10013;40.730646;-73.986614;New York City NY 10013;c:24853;12.03.2009;;05.07.2018;c:24853;social;1;23
124;mFoundry;CA;Larkspur;94939;37.862592;-122.493561;;c:14608;01.01.2004;;22.03.2016;c:14608;mobile;4;7
998;Bevvy;CA;Los Angeles;90046;34.098242;-118.35697;Los Angeles CA 90046;c:65389;08.01.2011;20.05.2017;;c:65389;ecommerce;1;9
281;Livemocha;WA;Seattle;98104;47.6399006;-122.1914274;;c:1767;01.09.2007;;03.02.2018;c:1767;education;1.5;14
960;IronPort Systems;CA;San Bruno;94066;37.626166;-122.411025;San Bruno CA 94066;c:6012;01.01.2000;;15.05.2019;c:6012;hardware;4;21
784;Crowdcast;CA;San Francisco;94108;37.779281;-122.419236;San Francisco CA 94108;c:44976;01.01.2007;;13.07.2016;c:44976;software;2;6
377;Where;MA;Boston;2114;42.360253;-71.058291;Boston MA 2114;c:2275;01.01.2004;;18.02.2018;c:2275;mobile;2.5;23
222;Pictela;NY;New York;10003;40.756054;-73.986951;;c:16611;17.10.2008;;05.06.2016;c:16611;advertising;1.5;8
1148;Grouply;CA;Redwood City;94063;37.502742;-122.211281;;c:975;01.03.2006;;14.02.2017;c:975;network_hosting;3.6667;13
869;Storify;CA;San Francisco;94103;37.779281;-122.419236;San Francisco CA 94103;c:51332;11.12.2009;;04.09.2018;c:51332;web;1.3333;14
439;Axiom Microdevices;CA;Irvine;92618;33.685697;-117.825982;Irvine CA 92618;c:25713;01.01.2002;;03.11.2016;c:25713;semiconductor;4;3
630;ShoeDazzle;CA;Santa Monica;90404;34.019657;-118.487549;Santa Monica CA 90404;c:36151;01.03.2009;;06.02.2018;c:36151;fashion;2.3333;17
134;LiftDNA;NY;New York;10016;40.74929;-73.981328;New York NY 10016;c:148576;01.09.2009;;05.07.2018;c:148576;advertising;3.5;5
1041;Onavo;CA;Palo Alto;94306;37.424298;-122.139809;Palo Alto CA 94306;c:73586;01.01.2010;;17.03.2017;c:73586;mobile;3;11
806;Pyxis Mobile;MA;Waltham;2451;42.37564;-71.2358;Waltham MA 2451;c:46070;01.01.1998;22.08.2019;;c:46070;software;2.3333;3
1107;Link_A_Media Devices;CA;Santa Clara;95051;37.354469;-121.990433;Santa Clara CA 95051;c:84867;01.01.2004;23.03.2015;;c:84867;semiconductor;1;4
57;Guardium;MA;Waltham;2451;42.37564;-71.2358;Waltham MA 2451;c:12171;01.01.2002;;31.07.2015;c:12171;search;4.5;1
794;Trooval;NV;Henderson;89052;35.96544;-115.106579;Henderson NV 89052;c:45413;01.09.2008;21.08.2018;;c:45413;analytics;1;2
76;Compete;MA;Boston;2116;42.346743;-71.076632;;c:1285;01.01.2000;;20.01.2018;c:1285;consulting;2.5;35
97;Rollstream;VA;McLean;22102;38.872668;-77.367981;;c:13730;01.01.2005;;24.06.2018;c:13730;software;1.5;4
573;NeoGuide Systems;CA;San Jose;95134;37.404788;-121.940842;San Jose CA 95134;c:31936;01.01.2000;;26.12.2015;c:31936;biotech;1;3
576;Accept Software;CA;Santa Clara;95054;37.386778;-121.966277;Santa Clara CA 95054;c:32011;01.01.2002;;28.05.2019;c:32011;software;2;7
368;Milo;CA;Palo Alto;94301;37.444531;-122.163352;;c:22203;01.01.2008;;02.10.2019;c:22203;web;12.5;21
19;Mimosa Systems;CA;Santa Clara;95054;37.379684;-121.97514;;c:10512;29.08.2003;;01.10.2018;c:10512;software;5;8
18;Surphace;NY;New York;10003;37.809782;-122.417306;;c:105;01.06.2005;;17.10.2018;c:105;web;5.5;15
964;Cloudmeter;CA;Mountain View;94041;37.388869;-122.072353;Mountain View CA 94041;c:60436;01.04.2007;;05.03.2017;c:60436;enterprise;1;7
929;Zecter;CA;Burlingame;94010;37.384756;-122.087712;;c:5779;01.06.2007;;18.01.2017;c:5779;network_hosting;1.6667;9
602;Dimdim;MA;Lowell;1851;42.6161515;-71.3258687;;c:3413;01.01.2006;;16.10.2015;c:3413;web;2;10
966;TeleFlip;CA;Santa Monica;90405;34.01695;-118.451933;;c:6049;01.01.2004;19.04.2015;;c:6049;mobile;1;5
944;MessageGate;WA;Bellevue;98004;47.614422;-122.192337;Bellevue WA 98004;c:58998;01.01.2001;22.03.2017;;c:58998;software;5;3
682;Cloverleaf Communications;NY;Woodbury;11797;40.825655;-73.467622;Woodbury NY 11797;c:39283;01.01.2001;;18.06.2019;c:39283;public_relations;3;2
95;SkyPilot Networks;CA;Santa Clara;95054;37.381876;-121.95993;;c:13681;01.01.2000;;06.03.2016;c:13681;mobile;4;6
360;Zencoder;CA;San Francisco;94103;37.779281;-122.419236;San Francisco CA 94103;c:21762;01.01.2007;;27.02.2018;c:21762;software;8.5;7
694;Storm Exchange;NY;New York;10010;40.730646;-73.986614;New York NY 10010;c:39801;01.04.2006;04.08.2019;;c:39801;enterprise;1;2
104;The Huffington Post;NY;New York;10003;40.729839;-73.991781;New York NY 10003;c:1388;09.05.2005;;18.06.2018;c:1388;news;2.5;31
40;Exaprotect;CA;Mountain View;94043;37.419347;-122.089639;;c:11307;01.01.2004;;08.01.2016;c:11307;security;6;5
659;Akorri Networks;MA;Littleton;1460;42.537592;-71.51201;Littleton MA 1460;c:37929;01.01.2005;;25.01.2016;c:37929;software;3;5
824;Giiv;CA;Los Angeles;90032;34.054935;-118.244476;Los Angeles CA 90032;c:47115;01.01.2009;23.08.2017;;c:47115;messaging;2.5;1
49;MyShape;CA;Glendale;91203;34.141876;-118.132377;;c:11817;01.09.2003;04.12.2016;;c:11817;ecommerce;1;3
1088;BlackLocus;TX;Austin;78701;30.2702703;-97.742204;;c:81476;01.01.2010;;12.12.2018;c:81476;analytics;2;5
156;FeedBurner;IL;Chicago;60610;41.889474;-87.628912;;c:155;01.02.2004;;29.10.2017;c:155;web;4;16
1152;DailyBurn;NY;New York;10011;40.73901;-73.997259;New York NY 10011;c:9822;01.10.2007;;16.12.2018;c:9822;web;2.5;6
1134;CastTV;CA;San Francisco;94107;37.780716;-122.393913;;c:93;01.01.2006;;20.04.2018;c:93;games_video;2;4
650;Venmo;NY;New York;10001;40.750519;-73.993494;New York NY 10001;c:37635;04.04.2009;;22.04.2015;c:37635;mobile;6;8
199;WeShow;NY;New York;10017;40.752516;-73.973072;;c:1627;01.06.2007;01.11.2015;;c:1627;games_video;2;2
151;SenSage;CA;San Francisco;;37.785655;-122.398393;;c:15294;18.08.2004;;05.08.2016;c:15294;security;3.8;6
474;Luminus Devices;MA;Billerica;1821;42.528635;-71.278022;;c:27163;01.01.2002;;19.10.2018;c:27163;other;4.3333;3
585;Tapioca Mobile;CA;San Diego;92121;32.88945;-117.166929;;c:3267;01.01.2008;07.12.2017;;c:3267;mobile;1;5
1067;BestVendor;NY;New York;10012;40.728425;-73.999882;New York NY 10012;c:77139;01.01.2011;;04.12.2015;c:77139;software;3;3
1130;Local Marketers;WA;Seattle;98104;47.5989681;-122.3329036;;c:9085;01.01.2005;07.08.2018;;c:9085;web;1;3
1080;Eyeona;CA;Los Gatos;95030;37.222698;-121.979887;Los Gatos CA 95030;c:80259;01.01.2011;10.11.2016;;c:80259;web;1;3
464;ColdSpark;CO;Broomfield;80021;39.937989;-105.058729;Broomfield CO 80021;c:26806;01.01.2001;;14.03.2018;c:26806;software;1;3
300;Etology;CA;Foster City;94404;37.561111;-122.270487;;c:18080;01.06.2005;25.08.2016;;c:18080;web;3;0
914;Wander (f. YongoPal);CA;Mountain View;94040;37.391642;-122.093935;Mountain View CA 94040;c:55592;01.01.2010;02.07.2019;;c:55592;mobile;2;3
1048;CrowdCompass;OR;Portland;97214;45.520247;-122.674195;Portland OR 97214;c:74928;01.04.2009;;03.11.2018;c:74928;mobile;1;5
476;Right Media;NY;New York;10011;40.74632;-73.982607;;c:2731;01.01.2003;;04.06.2017;c:2731;advertising;1;21
583;Goby;MA;Boston;2111;42.360253;-71.058291;Boston MA 2111;c:32383;01.07.2008;;12.10.2019;c:32383;search;2;4
112;FiveRuns;TX;Austin;78701;30.280148;-97.749908;Austin TX 78701;c:1419;01.02.2005;;14.03.2015;c:1419;web;1;11
886;GeekStatus;CA;Beverly Hills;90211;34.066697;-118.383367;Beverly Hills CA 90211;c:53304;01.08.2010;13.11.2018;;c:53304;web;1;0
314;MOLI;CT;Hartford;6103;54.983201;-1.574631;Hartford CT 6103;c:1899;01.01.2008;27.11.2016;;c:1899;network_hosting;2;9
513;TrenStar;CO;Greenwood Village;80111;39.616435;-104.879925;Greenwood Village CO 80111;c:29168;01.01.2001;;16.01.2016;c:29168;software;1;2
963;World Blender;WA;Seattle;98109;47.603832;-122.330062;Seattle WA 98109;c:60352;01.01.2010;05.11.2017;;c:60352;games_video;1;3
687;Zymetis;MD;College Park;20742;38.988766;-76.940952;College Park MD 20742;c:39507;01.01.2006;17.08.2016;;c:39507;biotech;1;3
1093;Dispatch;NY;New York;10003;40.729839;-73.991781;New York NY 10003;c:82843;01.05.2011;;09.05.2019;c:82843;messaging;6;4
381;HauteLook;CA;Los Angeles;90015;34.054935;-118.244476;Los Angeles CA 90015;c:23052;01.12.2007;;07.10.2015;c:23052;fashion;1.5;15
34;Semantra;TX;Addison;75001;32.969251;-96.823778;;c:10969;01.01.2003;24.11.2017;;c:10969;software;1;0
972;Inertia Beverage Group;CA;Napa;94558;38.223032;-122.261642;;c:6150;22.10.2004;29.07.2017;;c:6150;software;2.5;6
808;Sponge;CA;San Francisco;94103;37.779281;-122.419236;San Francisco CA 94103;c:46129;01.01.2010;;26.04.2018;c:46129;web;1;3
643;Genesis Networks;NY;New York;10119;40.730646;-73.986614;New York NY 10119;c:36936;01.01.2002;;21.02.2016;c:36936;network_hosting;2;4
272;Mogad;CA;San Francisco;94110;37.763652;-122.421778;;c:1760;01.06.2007;;24.02.2019;c:1760;network_hosting;4;4
257;Meebo;CA;Mountain View;94041;37.393679;-122.079017;;c:173;01.02.2005;;03.05.2017;c:173;web;2.8;29
997;Accertify;IL;Itasca;60143;42.048203;-88.031569;;c:6520;01.03.2007;;12.07.2019;c:6520;security;1;6
252;N2N Commerce;MA;Cambridge;2142;37.09024;-95.712891;;c:1725;01.01.2006;;04.09.2018;c:1725;ecommerce;2;1
448;StreamBase Systems;MA;Lexington;2421;42.447318;-71.2245;Lexington MA 2421;c:26007;01.01.2003;;22.02.2017;c:26007;software;3.25;13
194;Provigent;CA;Santa Clara;;37.381341;-121.977065;;c:16189;01.01.2000;;19.11.2019;c:16189;semiconductor;3;10
970;Navic Networks;MA;Waltham;2451;42.375518;-71.272292;;c:6117;03.01.2000;;28.09.2019;c:6117;advertising;2.6667;7
799;Integrien;CA;Irvine;92618;33.685697;-117.825982;Irvine CA 92618;c:45696;01.01.2001;;02.11.2018;c:45696;enterprise;2.6667;5
922;Generic Media;CA;Palo Alto;94301;37.441537;-122.158332;Palo Alto CA 94301;c:56580;01.01.2000;11.03.2018;;c:56580;software;1;0
382;Persystent Technologies;FL;Tampa;33618;28.0385347;-82.5068513;;c:23072;01.01.2002;;05.11.2016;c:23072;software;4.5;1
843;WireImage;NY;New York;10013;40.730646;-73.986614;New York NY 10013;c:49442;01.01.2001;;22.02.2018;c:49442;games_video;4;6
677;Hello Chair;CA;San Francisco;94110;37.779281;-122.419236;San Francisco CA 94110;c:38794;01.01.2006;25.10.2015;;c:38794;mobile;3.5;5
933;Encentuate;CA;Foster City;94404;37.573045;-122.2823;Foster City CA 94404;c:58018;01.01.2001;;24.04.2016;c:58018;software;3;6
1133;Consorte Media;CA;San Francisco;94104;37.762185;-122.467269;;c:921;01.07.2005;;27.12.2017;c:921;web;2;5
1026;Triples Media;NY;New York;10004;40.730646;-73.986614;New York NY 10004;c:71120;01.06.2010;06.06.2015;;c:71120;advertising;1;3
338;RightsFlow;NY;New York;10011;40.73901;-73.997259;New York NY 10011;c:20146;01.10.2007;;11.06.2018;c:20146;music;1;13
1045;thePlatform;WA;Seattle;98104;47.617838;-122.356027;;c:7440;01.01.2000;;17.08.2015;c:7440;web;1;19
864;Docstoc;CA;Santa Monica;90401;34.018275;-118.495025;;c:512;01.08.2007;;10.06.2015;c:512;web;3;22
444;TwtBks;CA;San Francisco;94110;37.7611016;-122.4160008;;c:25808;20.06.2009;27.07.2017;;c:25808;web;1;3
337;Zenprise;CA;Redwood City;94063;37.484347;-122.225803;Redwood City CA 94063;c:20117;01.01.2003;;06.04.2015;c:20117;mobile;3.6667;10
14;Picateers;CA;San Mateo;94402;40.787878;-74.388207;;c:10398;01.01.2005;01.12.2017;;c:10398;web;1;10
132;Vontu;CA;San Francisco;94111;37.779281;-122.419236;San Francisco CA 94111;c:14854;01.01.2001;;22.12.2016;c:14854;software;4.5;9
651;NextIO;TX;Austin;78759;30.409765;-97.75101;Austin TX 78759;c:37647;01.01.2003;30.10.2018;;c:37647;hardware;1;10
310;Emergent Game Technologies;CA;Calabasas;91302;34.1549426;-118.6545471;;c:18875;01.01.2000;;06.02.2019;c:18875;games_video;5.6667;3
482;threadsy;CA;San Francisco;94107;37.775206;-122.419209;;c:27591;01.06.2008;;24.12.2017;c:27591;messaging;2;7
1056;Sonar.me;NY;New York;10001;40.750519;-73.993494;New York NY 10001;c:76274;01.01.2010;04.12.2017;;c:76274;mobile;1;8
144;StyleZen;OH;Cincinnati;45202;39.099909;-84.504243;Cincinnati OH 45202;c:150577;01.09.2011;16.03.2016;;c:150577;fashion;1;2
52;Kiva Systems;MA;North Reading;1864;42.492256;-71.134549;;c:12052;01.01.2003;;12.02.2016;c:12052;hardware;2;13
564;Krillion;CA;Mountain View;94041;37.391727;-122.077597;;c:3180;01.05.2006;;05.05.2018;c:3180;web;2;6
598;Transactiv;OH;Cincinnati;45202;39.099909;-84.504243;Cincinnati OH 45202;c:33912;01.07.2009;15.07.2018;;c:33912;advertising;4;2
1027;nprogress;CA;Los Angeles;90049;34.054935;-118.244476;Los Angeles CA 90049;c:71372;01.02.2010;11.07.2016;;c:71372;social;1;4
814;Brightkite;CA;Burlingame;94010;39.762314;-104.982256;;c:465;01.01.2007;;28.08.2015;c:465;social;1;9
262;Peanut Labs;CA;San Francisco;94104;37.7915;-122.40045;;c:17430;01.01.2005;;01.11.2016;c:17430;enterprise;1.5;16
789;FlipKey;MA;Boston;2110;42.354023;-71.058096;;c:4529;01.01.2007;;22.08.2016;c:4529;web;2;7
722;AppTrigger;TX;Richardson;75082;32.997114;-96.676137;Richardson TX 75082;c:41957;01.01.2002;;19.12.2017;c:41957;public_relations;4;1
511;Footnote;UT;Lindon;84042;40.3310529;-111.7276347;;c:2889;01.06.2006;;28.10.2016;c:2889;web;2;4
805;NextMedium;CA;Los Angeles;90064;34.054935;-118.244476;Los Angeles CA 90064;c:46042;01.01.2004;09.08.2017;;c:46042;software;2.5;7
673;iosil Energy;NM;Albuquerque;87102;35.084103;-106.650985;Albuquerque NM 87102;c:38504;01.01.2007;28.08.2017;;c:38504;cleantech;1;4
447;Kurani Interactive;NJ;Red Bank;7701;40.347054;-74.064306;Red Bank NJ 7701;c:25997;01.01.2000;09.03.2015;;c:25997;software;1;5
518;Kapow Software;CA;Palo Alto;94306;37.426316;-122.141082;;c:2953;01.01.2005;;21.05.2016;c:2953;software;2.5;10
849;Locately;MA;Boston;2110;42.360253;-71.058291;Boston MA 2110;c:49876;01.07.2008;;10.09.2015;c:49876;software;5;5
120;TrustedID;CA;Palo Alto;94306;37.520592;-122.255907;;c:1447;01.01.2005;;24.11.2019;c:1447;security;2;5
450;Ciclon Semiconductor Device Corporation;PA;Bethlehem;18015;40.6015759;-75.3611135;;c:26114;01.01.2004;;15.07.2015;c:26114;semiconductor;2;1
438;Azingo;CA;Sunnyvale;94086;37.382162;-122.036301;;c:25688;01.01.2005;06.10.2019;;c:25688;mobile;1;4
592;Vudu;CA;Santa Clara;95051;37.354469;-121.990433;Santa Clara CA 95051;c:335;01.01.2004;;27.02.2015;c:335;hardware;3.5;11
4;ITOG, Inc.;MO;Saint Louis;63043;38.703764;-90.443832;;c:10153;19.09.2006;30.09.2018;;c:10153;network_hosting;1;1
468;Plaxo;CA;Sunnyvale;94089;37.387845;-122.055197;;c:27;17.11.2002;;31.10.2017;c:27;web;2.5;27
325;Sharetivity;CA;Palo Alto;94303;37.550954;-122.315396;;c:1957;07.07.2007;18.10.2017;;c:1957;web;1;1
981;YouTube;CA;San Bruno;94066;37.627971;-122.426804;;c:63;01.02.2005;;28.09.2015;c:63;games_video;1;63
942;Hashable;NY;New York City;10018;40.730646;-73.986614;New York City NY 10018;c:58699;01.01.2010;24.06.2016;;c:58699;mobile;1;15
752;MyNines;NY;New York;10016;40.74929;-73.981328;New York NY 10016;c:43386;01.08.2009;10.01.2016;;c:43386;ecommerce;1;2
644;itzbig;TX;Austin;78759;30.387275;-97.759511;;c:3717;01.06.2006;11.05.2017;;c:3717;search;2;9
1025;Loosecubes;NY;Brooklyn;11201;40.650104;-73.949582;Brooklyn NY 11201;c:70893;01.01.2010;19.05.2016;;c:70893;web;4;8
415;Avid Radiopharmaceuticals;PA;Philadelphia;19104;39.952399;-75.16359;Philadelphia PA 19104;c:24727;01.01.2005;;05.01.2018;c:24727;biotech;4.75;15
197;Contur;CA;Los Angeles;90024;34.050451;-118.437775;Los Angeles CA 90024;c:162219;01.09.2011;12.04.2016;;c:162219;messaging;1;2
59;ExactTarget;IN;Indianapolis;46204;39.7672093;-86.1580785;;c:12178;01.12.2000;;11.07.2017;c:12178;software;2;29
394;Rhythmia Medical;MA;Burlington;1803;42.504817;-71.195611;Burlington MA 1803;c:23487;01.01.2004;;02.04.2016;c:23487;medical;1;3
600;MyMiniLife;CA;Palo Alto;94303;37.437328;-122.159928;;c:3400;01.01.2007;;27.02.2019;c:3400;games_video;1.6667;4
275;Adept Cloud;CA;San Mateo;94403;37.538352;-122.299665;San Mateo CA 94403;c:176278;01.06.2011;;22.01.2018;c:176278;enterprise;1;5
366;Factery;CA;Menlo Park;94025;37.4484914;-122.1802812;;c:22113;01.04.2009;29.04.2017;;c:22113;web;1;2
919;MeetMe, Inc.;PA;New Hope;18938;40.364273;-74.951278;New Hope PA 18938;c:5617;01.04.2005;;30.03.2019;c:5617;web;2.5;16
180;WildBlue;CO;Englewood;80155;39.6478;-104.9875;;c:15996;01.01.2004;;09.08.2019;c:15996;web;4;0
819;HeadCase Humanufacturing;CA;Los Angeles;90039;34.054935;-118.244476;Los Angeles CA 90039;c:46893;01.01.2006;30.09.2019;;c:46893;software;1;3
268;bluepulse;CA;San Mateo;94401;37.563905;-122.324688;;c:1753;10.04.1990;23.10.2015;;c:1753;network_hosting;1;7
365;Mr. Youth;NY;New York;10003;40.729839;-73.991781;New York NY 10003;c:22057;01.01.2002;;22.06.2018;c:22057;advertising;1;5
627;Teknovus;CA;Petaluma;94954;38.232583;-122.636465;Petaluma CA 94954;c:35887;01.01.2001;;05.07.2019;c:35887;semiconductor;9.3333;7
203;Qik;CA;Redwood City;94063;37.486368;-122.230116;;c:1628;01.06.2006;;13.03.2016;c:1628;mobile;2.25;15
779;EQAL;CA;North Hollywood;91601;34.172904;-118.374037;North Hollywood CA 91601;c:4453;01.04.2008;;01.06.2015;c:4453;web;7;30
244;IonLogix Systems;TX;Waco;76710;31.5682893;-97.1973664;;c:16973;11.12.2007;02.01.2019;;c:16973;software;1;1
831;Atrica;CA;Santa Clara;95054;37.386778;-121.966277;Santa Clara CA 95054;c:47689;01.01.2000;19.07.2015;;c:47689;public_relations;9;10
804;Socialthing;CO;Boulder;80302;40.0186731;-105.2762236;;c:459;18.05.2007;;02.08.2015;c:459;network_hosting;1;6
545;Next New Networks;NY;New York;10010;40.743808;-73.983626;;c:3094;01.03.2007;;08.03.2015;c:3094;web;3.5;16
68;AdECN;CA;Carpinteria;93013;34.394343;-119.51231;;c:12468;01.01.2003;;19.02.2015;c:12468;advertising;5;6
1110;Cuil;CA;Menlo Park;94025;37.451124;-122.166264;;c:856;01.01.2005;30.12.2018;;c:856;search;1;13
202;Sensory Networks;CA;Mountain View;94043;37.430025;-122.09998;;c:16276;01.01.2003;;06.12.2015;c:16276;web;5;2
710;Flock;CA;Menlo Park;94025;37.491356;-122.228843;;c:410;01.01.2005;;23.01.2015;c:410;web;2;17
1035;AdMob;CA;Mountain View;94043;37.563585;-122.324621;;c:726;01.12.2006;;29.01.2017;c:726;advertising;2.5;42
1111;FeeFighters;IL;Chicago;60654;41.879535;-87.624333;;c:8573;01.01.2009;;19.09.2018;c:8573;ecommerce;2.6667;5
11;WeHostels;NY;New York City;10010;40.730646;-73.986614;New York City NY 10010;c:102867;15.11.2011;;06.09.2015;c:102867;travel;5;9
741;TimeBridge;CA;Mountain View;94040;37.391642;-122.093935;Mountain View CA 94040;c:431;01.05.2005;;14.03.2015;c:431;web;1.6667;6
967;Lazarus Therapeutics;PA;West Chester;19380;39.959721;-75.605964;West Chester PA 19380;c:60516;01.01.2006;12.11.2018;;c:60516;biotech;1;1
761;Loyalty Lab;CA;San Francisco;94105;37.779281;-122.419236;San Francisco CA 94105;c:43832;01.01.2003;;20.06.2015;c:43832;software;1.6667;4
1094;RentStuff.com;TN;Nashville;37201;36.16223;-86.774353;Nashville TN 37201;c:83142;01.01.2010;;02.03.2017;c:83142;web;1.5;3
1144;ZManda;CA;Sunnyvale;94086;37.3725243;-122.035963;;c:9669;01.01.2005;;31.01.2019;c:9669;software;2.5;5
980;Jumo;NY;New York;10012;40.728425;-73.999882;New York NY 10012;c:62802;01.02.2010;;07.01.2016;c:62802;social;2;5
921;Sionex;MA;Bedford;1730;42.49173;-71.281795;Bedford MA 1730;c:56568;01.01.2001;04.08.2015;;c:56568;hardware;4;2
885;sezmi;CA;Belmont;94002;37.524422;-122.265869;;c:531;01.01.2007;;29.06.2016;c:531;games_video;4.3333;10
5;StudioNow;TN;Nashville;37212;36.13996;-86.796377;;c:10158;01.01.2007;;29.04.2015;c:10158;photo_video;1;2
43;PicApp;CA;San Francisco;94111;37.79402;-122.4031242;;c:11438;01.01.2008;;22.04.2017;c:11438;web;1;5
1052;Million Dollar Earth;WA;Puyallup;98371;47.184901;-122.292141;Puyallup WA 98371;c:75796;01.03.2011;07.10.2016;;c:75796;advertising;2;1
796;Composite Software;CA;San Mateo;94403;37.538352;-122.299665;San Mateo CA 94403;c:45428;01.01.2002;;21.05.2019;c:45428;software;1;28
210;Terracotta;CA;San Francisco;94110;37.7710177;-122.4025976;;c:16365;01.01.2003;;26.06.2018;c:16365;software;5;9
818;FireStar Software;MA;Boxborough;1719;42.493447;-71.514104;Boxborough MA 1719;c:46889;01.01.2001;13.05.2015;;c:46889;software;1;2
198;Aquest Systems;CA;Sunnyvale;94085;37.390956;-122.032795;;c:16264;01.01.2004;15.10.2019;;c:16264;hardware;3;0
69;Faves;WA;Seattle;98104;47.603327;-122.334983;;c:1253;01.12.2004;28.05.2015;;c:1253;web;1;4
498;Generate;CA;Santa Monica;90404;34.031328;-118.471463;;c:2838;01.01.2004;;06.04.2017;c:2838;games_video;1.5;0
1038;Attributor;CA;San Mateo;94401;37.453687;-122.228595;;c:732;01.10.2005;;23.02.2015;c:732;software;4;13
306;Greenplum Software;CA;San Mateo;94403;37.552262;-122.292146;;c:1853;01.06.2003;;18.05.2018;c:1853;software;3;21
1146;PlaySpan;CA;Santa Clara;95054;37.396312;-121.961396;;c:971;01.05.2006;;17.04.2015;c:971;games_video;4.25;12
36;JackBe;MD;Chevy Chase;20815;38.963492;-77.091025;;c:1107;01.01.2002;;14.01.2017;c:1107;software;4.3333;15
253;D2C Games;CA;San Mateo;94404;37.496904;-122.333057;San Mateo CA 94404;c:17252;01.01.2006;07.07.2017;;c:17252;games_video;1;1
1153;Zimbra;CA;Palo Alto;94304;37.557637;-122.285714;;c:997;01.01.2003;;22.06.2016;c:997;enterprise;9;19
532;Smith & Tinker;WA;Bellevue;98005;47.5827803;-122.1548103;;c:30307;01.01.2007;07.11.2017;;c:30307;games_video;1;1
200;Mu Dynamics;CA;Sunnyvale;94085;37.390233;-122.033741;;c:16271;01.01.2005;;10.06.2019;c:16271;network_hosting;2.6667;5
373;Fulcrum Microsystems;CA;Calabasas;91302;34.1411985;-118.7040908;;c:22712;01.01.2000;;03.06.2015;c:22712;semiconductor;5.6667;2
1150;ReTel Technologies;CA;San Francisco;94105;41.78942;-87.596232;;c:9782;01.10.2007;;11.09.2018;c:9782;analytics;4.5;4
1011;NexGen Storage;CO;Louisville;80027;39.977763;-105.13193;Louisville CO 80027;c:68169;01.01.2010;;31.05.2017;c:68169;software;2.5;14
909;WAY Systems;MA;Woburn;1801;42.479262;-71.152277;Woburn MA 1801;c:55354;01.01.2002;;27.02.2016;c:55354;mobile;4;2
554;Roxro Pharma;CA;Menlo Park;94025;37.459177;-122.173907;;c:31488;01.01.1999;30.07.2019;;c:31488;biotech;3;1
269;Intelliden;CA;Menlo Park;94025;37.4587657;-122.1725191;;c:17542;01.01.2000;;17.08.2015;c:17542;software;4;5
773;Forrst;CA;Campbell;;37.288326;-121.945633;Campbell CA 95008-2069;c:44268;25.01.2010;;07.05.2017;c:44268;web;7;3
865;XGraph;NY;New York;10017;40.730646;-73.986614;New York NY 10017;c:51228;01.10.2008;;11.09.2017;c:51228;analytics;1;5
1031;Color Labs Inc.;CA;Palo Alto;94301;37.441537;-122.158332;Palo Alto CA 94301;c:71852;01.08.2010;27.08.2017;;c:71852;other;1;11
385;Playdom;CA;Palo Alto;94306;37.393536;-122.076747;;c:23125;01.02.2008;;04.08.2015;c:23125;games_video;4;37
658;Digital Reef;MA;Boxborough;1719;42.493447;-71.514104;Boxborough MA 1719;c:37928;01.01.2006;;13.07.2019;c:37928;enterprise;1;9
1003;Servio;CA;San Francisco;94107;37.779281;-122.419236;San Francisco CA 94107;c:65916;30.04.2009;;26.05.2019;c:65916;analytics;1.5;11
372;Advaliant;NY;New York;10016;40.743662;-73.984268;;c:2245;16.04.2013;25.12.2014;;c:2245;advertising;1;6
224;Vocalocity;GA;Atlanta;30309;33.7812614;-84.3675617;;c:16618;01.01.2007;;11.02.2016;c:16618;software;3;9
153;Dapper;CA;San Francisco;94107;37.7766184;-122.3938931;;c:1541;01.10.2006;;28.04.2017;c:1541;advertising;2;19
164;SeeSaw Networks;CA;San Francisco;94104;37.791564;-122.399981;;c:15687;01.01.2005;25.09.2018;;c:15687;advertising;2;4
350;oneforty;MA;Cambridge;2139;42.364014;-71.101375;;c:20889;31.03.2009;;14.10.2015;c:20889;enterprise;5.75;13
374;Smalltown;CA;San Mateo;94401;37.566123;-122.323045;;c:2272;15.01.2005;04.11.2018;;c:2272;web;1;7
856;Skyrider;CA;Mountain View;94043;37.406914;-122.09037;Mountain View CA 94043;c:5043;01.01.2003;13.01.2016;;c:5043;software;1;2
729;SkillSlate;NY;New York;10001;40.750519;-73.993494;New York NY 10001;c:42193;01.01.2009;;28.10.2015;c:42193;web;8;8
968;AwesomeTouch;KY;Lexington;40507;38.046407;-84.497039;Lexington KY 40507;c:60521;26.07.2010;;26.04.2017;c:60521;software;1;3
839;Syncplicity;CA;Menlo Park;94025;37.814202;-122.477959;;c:4881;03.11.2008;;12.05.2016;c:4881;enterprise;2;12
1040;Fortisphere;VA;Chantilly;22031;38.87804;-77.436151;;c:7345;01.01.2006;11.05.2018;;c:7345;software;1;2
12;PlayerDuel;CA;Palo Alto;94306;37.424298;-122.139809;Palo Alto CA 94306;c:103204;01.01.2011;13.03.2019;;c:103204;mobile;1;2
441;Aveksa;MA;Waltham;2451;42.3988661;-71.253781;;c:25743;01.01.2004;;10.09.2018;c:25743;software;2.6667;7
915;PANTA Systems;CA;Santa Clara;95054;37.386778;-121.966277;Santa Clara CA 95054;c:55829;01.01.2002;11.07.2016;;c:55829;software;2;0
458;Beceem Communications;CA;Santa Clara;95054;37.352313;-121.967982;;c:26556;01.10.2003;;13.01.2019;c:26556;semiconductor;7.6667;5
516;Trust Digital;VA;McLean;22102;38.919954;-77.212493;;c:29312;01.03.2003;;25.09.2015;c:29312;mobile;3.6667;11
534;Sabrix;OR;Lake Oswego;97035;45.413842;-122.725662;Lake Oswego OR 97035;c:3050;01.01.2002;;28.06.2017;c:3050;software;4;6
471;Panther Express;NY;New York;10011;40.73901;-73.997259;New York NY 10011;c:2709;01.01.2005;;20.09.2018;c:2709;games_video;2;8
893;T-Networks;PA;Allentown;18106;40.602206;-75.471279;Allentown PA 18106;c:53946;01.01.2000;23.07.2016;;c:53946;public_relations;4;0
509;BlueNote Networks;ME;Tewksbury;1876;42.645342;-71.234547;;c:28752;01.01.2005;;13.07.2015;c:28752;software;2.5;1
44;Predictify;CA;Redwood City;94063;37.486571;-122.229161;;c:1148;01.03.2007;26.01.2017;;c:1148;advertising;1;4
328;BreakingPoint Systems;TX;Austin;78746;30.384453;-97.709809;;c:1967;28.08.2005;;21.09.2019;c:1967;security;2;1
472;OptiMedica;CA;Santa Clara;95054;37.3777985;-121.9744545;;c:27142;01.01.2004;;02.09.2019;c:27142;biotech;3.5;16
727;Metatomix;MA;Dedham;2026;42.241765;-71.166164;Dedham MA 2026;c:42123;01.01.2000;;03.10.2015;c:42123;enterprise;4.6667;2
720;Neterion;CA;Cupertino;95014;37.320309;-122.05004;Cupertino CA 95014;c:41656;01.01.2001;;18.11.2019;c:41656;public_relations;3;6
190;Schooner Information Technology;CA;Sunnyvale;94085;37.477037;-122.15164;;c:16145;01.05.2007;;20.12.2014;c:16145;enterprise;2.5;8
1017;Swaptree Inc.;MA;Boston;2109;42.358956;-71.054776;;c:6964;01.01.2010;14.11.2017;;c:6964;web;1;5
160;Nalace Corporation;GA;Lawrenceville;30043;33.956215;-83.987962;Lawrenceville GA 30043;c:155821;01.01.2012;02.07.2018;;c:155821;ecommerce;1;1
840;Quidsi;NJ;Jersey City;7302;40.728158;-74.077642;Jersey City NJ 7302;c:49052;01.01.2005;;17.10.2016;c:49052;ecommerce;3.4;27
236;spotdock;NY;NYC;10012;40.730646;-73.986614;NYC NY 10012;c:167795;15.11.2011;21.05.2016;;c:167795;web;2;4
603;Netcordia;MD;Annapolis;21401;38.97864;-76.492786;Annapolis MD 21401;c:34152;01.01.2000;;03.03.2018;c:34152;network_hosting;1.5;3
530;SearchMe;CA;Mountain View;94040;37.386665;-122.084171;;c:3027;01.07.2005;25.12.2015;;c:3027;search;3;7
6;Yammer;CA;San Francisco;94103;37.776246;-122.4179223;;c:10176;10.09.2008;;08.01.2018;c:10176;enterprise;5.2;38
851;Clever Sense;CA;Mountain View;94043;37.406914;-122.09037;Mountain View CA 94043;c:50076;11.04.2008;;24.07.2018;c:50076;web;1.5;6
451;AlterPoint;TX;Austin;78730;30.354768;-97.798152;;c:26122;01.01.2001;;16.01.2015;c:26122;software;3;4
265;Shocking Technologies;CA;San Jose;95138;37.261986;-121.784279;;c:17501;01.01.2006;28.07.2018;;c:17501;hardware;3.2;2
188;Ribbit;CA;Mountain View;94040;37.386665;-122.084171;;c:1613;23.02.2005;;20.01.2015;c:1613;mobile;2;14
719;StorSimple;CA;Santa Clara;95054;37.386778;-121.966277;Santa Clara CA 95054;c:41484;01.01.2009;;29.11.2019;c:41484;enterprise;3.3333;19
1053;NationalField;DC;Washington;20009;38.894955;-77.036646;Washington DC 20009;c:76102;12.06.2009;;24.12.2015;c:76102;enterprise;2;4
1064;Tripl;NY;New York;10003;40.729839;-73.991781;New York NY 10003;c:76765;17.05.2011;08.12.2018;;c:76765;social;1;5
423;Sadra Medical;CA;Campbell;95008;37.2615879;-121.9578487;;c:24986;01.01.2003;;20.02.2019;c:24986;biotech;5;4
123;expressor software;MA;Burlington;1803;42.485102;-71.211568;;c:14593;01.01.2007;;04.09.2018;c:14593;software;2.6667;10
100;NSFW Corporation;NV;Las Vegas;89101;36.170538;-115.101942;Las Vegas NV 89101;c:138030;01.01.2011;;06.10.2016;c:138030;news;1.5;3
791;Azaire Networks;CA;Santa Clara;95054;37.386778;-121.966277;Santa Clara CA 95054;c:45339;01.01.2003;27.01.2019;;c:45339;software;1;2
56;Quigo;NY;New York;10016;40.907974;-73.84179;;c:1214;01.01.2000;;31.10.2015;c:1214;advertising;3.5;25
990;Weatherista;CA;San Francisco;94105;37.779281;-122.419236;San Francisco CA 94105;c:63731;16.08.2010;16.04.2017;;c:63731;web;1;2
832;Navini Networks;TX;Richardson;75082;32.997114;-96.676137;Richardson TX 75082;c:47848;01.01.2000;;01.07.2016;c:47848;public_relations;3.5;3
887;VirtualLogix;CA;Sunnyvale;94089;37.409147;-122.015463;;c:5347;01.01.2002;;28.07.2017;c:5347;software;2.6667;9
141;Exit41;MA;Andover;1810;42.6555302;-71.1455618;;c:14993;01.01.1999;01.11.2015;;c:14993;software;2.3333;11
62;SezWho;CA;Los Altos;94024;37.351894;-122.085807;;c:1223;01.10.2006;;27.12.2018;c:1223;web;1;4
910;Jobs2Web;MN;Minnetonka;55343;44.912723;-93.499059;Minnetonka MN 55343;c:55421;01.01.2003;;23.03.2016;c:55421;web;1;3
499;HighlightCam;CA;Mountain View;94040;37.4063024;-122.1088743;;c:28403;27.07.2009;03.11.2015;;c:28403;mobile;3.5;8
74;MerchantCircle;CA;Mountain View;94040;37.391642;-122.093935;Mountain View CA 94040;c:1283;01.10.2005;;19.01.2018;c:1283;web;4.5;13
845;Helicomm;CA;San Diego;92121;32.901049;-117.192656;San Diego CA 92121;c:49621;01.01.2002;22.01.2016;;c:49621;network_hosting;2;0
146;Kace networks;CA;Mountain View;94043;37.417002;-122.07871;;c:15122;01.01.2003;;12.09.2015;c:15122;software;1.5;7
662;Thwapr;NY;New York;10014;40.730646;-73.986614;New York NY 10014;c:38019;01.01.2007;30.04.2019;;c:38019;photo_video;3;7
844;Zinch;CA;San Francisco;94103;40.234451;-111.658656;;c:4961;01.02.2007;;22.04.2015;c:4961;web;1;17
718;Cloud.com;CA;Cupertino;95014;37.320309;-122.05004;Cupertino CA 95014;c:41483;01.01.2008;;16.12.2015;c:41483;enterprise;3;12
66;Wildfire, a division of Google;CA;Redwood City;94063;37.445667;-122.166911;;c:12348;01.07.2008;;31.03.2015;c:12348;enterprise;2.25;19
577;Authenticlick;CA;Los Angeles;90036;34.062504;-118.354605;;c:3202;05.08.2005;23.03.2018;;c:3202;search;1;8
581;Idooble;WA;Vancouver;98665;45.630695;-122.674456;Vancouver WA 98665;c:32144;01.01.2009;24.10.2018;;c:32144;web;1;1
578;BioSeek;CA;South San Francisco;94080;37.658313;-122.391032;South San Francisco CA 94080;c:32023;01.01.2000;;14.12.2016;c:32023;biotech;1;4
116;xkoto;MA;Waltham;2451;42.405685;-71.255857;;c:1445;01.01.2005;05.10.2015;;c:1445;software;1.6667;3
889;Coradiant;MA;Lexington;2421;42.4717204;-71.2621435;;c:53686;01.01.2000;;12.01.2015;c:53686;public_relations;4;9
854;QuantaLife;CA;Pleasanton;94566;39.78373;-100.445882;Pleasanton CA 94566;c:50208;01.01.2008;;23.09.2019;c:50208;biotech;1;3
238;BroadLight;CA;Santa Clara;95054;37.404044;-121.978956;;c:16874;01.06.2000;;02.06.2017;c:16874;software;6;5
991;BBE;NY;New York;10016;40.7445343;-73.9874008;;c:643;01.04.2004;;05.12.2017;c:643;advertising;1;7
888;TelASIC Communications;CA;El Segundo;90245;33.923916;-118.39665;El Segundo CA 90245;c:53471;01.01.2001;11.08.2018;;c:53471;public_relations;4;4
656;LegiTime Technologies;CT;Farmington;6032;44.671539;-70.144101;Farmington CT 6032;c:37780;01.01.2005;16.10.2015;;c:37780;messaging;2;2
266;Mobius Microsystems;CA;Sunnyvale;94086;37.377787;-122.029217;;c:17508;01.01.2004;;01.04.2017;c:17508;hardware;3;3
490;Boonty;NY;New York;10013;40.717248;-74.002662;;c:2804;01.03.2001;;06.06.2015;c:2804;games_video;4;7
41;B-Side Entertainment;NY;New York;10010;40.7434025;-73.9890857;;c:11397;07.04.2005;17.05.2017;;c:11397;games_video;1;8
717;Taggstr;CA;San Jose;95138;37.288136;-121.79765;San Jose CA 95138;c:41409;01.07.2009;09.04.2017;;c:41409;messaging;1;1
913;Fashism;NY;New York;10010;40.7394115;-73.9895748;;c:55436;01.01.2009;02.02.2019;;c:55436;fashion;7;5
70;Goodmail Systems;CA;Mountain View;94040;37.39972;-122.108306;;c:12630;01.01.2003;18.06.2015;;c:12630;security;2;16
635;Nirvanix;CA;San Diego;92121;32.877656;-117.210595;;c:365;01.07.2007;10.05.2015;;c:365;enterprise;4.2;22
348;LookStat;WA;Seattle;98102;47.6447802;-122.325878;;c:20832;01.01.2008;07.02.2016;;c:20832;ecommerce;1;3
684;Sweepery;CA;San Francisco;94133;37.779281;-122.419236;San Francisco CA 94133;c:39399;01.08.2008;18.05.2017;;c:39399;software;1;6
288;Luminary Micro;TX;Austin;78746;30.306591;-97.826727;;c:17809;01.01.2004;;25.07.2017;c:17809;semiconductor;4;2
400;ZettaCore;CO;Englewood;80112;39.5604863;-104.8656251;;c:23788;01.01.1999;08.05.2016;;c:23788;semiconductor;1;4
543;Clicker;CA;Los Angeles;90038;34.083228;-118.341449;;c:30834;01.01.2009;;12.09.2018;c:30834;games_video;3.5;12
680;iKoa;CA;Menlo Park;94025;39.78373;-100.445882;Menlo Park CA 94025;c:39105;01.01.2006;15.11.2018;;c:39105;semiconductor;1;0
850;SocialShield;CA;San Bruno;94066;37.626166;-122.411025;San Bruno CA 94066;c:49960;01.09.2009;;17.08.2018;c:49960;software;7;6
1131;LeisureLogix;FL;Tampa;33635;28.032975;-82.64611;;c:9106;01.08.2006;14.04.2018;;c:9106;software;1;5
271;Storwize;MA;Marlborough;1752;37.237937;-121.974591;;c:17581;01.01.2004;;26.01.2018;c:17581;other;2;13
110;AutoVirt;NH;Nashua;3062;42.7370219;-71.4872976;;c:14028;01.01.2007;04.02.2019;;c:14028;software;1;5
82;Loopt;CA;Mountain View;94040;37.384717;-122.081625;;c:1309;01.01.2005;;01.05.2015;c:1309;mobile;1.6667;21
500;Blue Lane Technologies;CA;Cupertino;95014;37.3169065;-122.0497023;;c:28420;01.01.2002;;06.06.2017;c:28420;public_relations;2;4
1000;Socialcast;CA;San Francisco;94107;37.7819267;-122.3932389;;c:6562;01.06.2005;;21.12.2017;c:6562;enterprise;1.5;18
767;Collective Intellect;CO;Boulder;80302;40.0186313;-105.2764361;;c:4394;01.01.2005;;06.04.2016;c:4394;enterprise;2.5;10
878;Wavii;WA;Seattle;98121;47.603832;-122.330062;Seattle WA 98121;c:52346;01.03.2009;;03.04.2017;c:52346;web;11;3
334;Seesmic;CA;San Francisco;94103;37.775196;-122.419204;;c:200;01.06.2007;;24.12.2016;c:200;web;5.6667;24
641;Apnex Medical;MN;Saint Paul;55113;44.950404;-93.101503;Saint Paul MN 55113;c:36892;01.01.2006;13.12.2014;;c:36892;medical;1;3
108;MobileReactor;PA;Philadelphia;19103;39.952399;-75.16359;Philadelphia PA 19103;c:139729;01.01.2010;30.07.2019;;c:139729;software;1;2
282;Echopass Corporation;CA;Pleasanton;94566;37.661002;-121.897829;;c:17724;01.01.2000;;12.08.2018;c:17724;network_hosting;4;22
205;ID Analytics;CA;San Diego;92128;32.7154;-117.1565;;c:16285;01.01.2002;;06.01.2017;c:16285;web;3;9
769;Vela Systems;MA;Burlington;1803;42.504817;-71.195611;Burlington MA 1803;c:43954;01.01.2005;;03.03.2016;c:43954;software;2.6667;4
481;FlowCardia;CA;Sunnnyvale;94085;37.396023;-122.03311;;c:27555;01.01.2002;;10.01.2019;c:27555;biotech;9;4
309;Bizanga;CA;San Mateo;94403;37.537542;-122.327609;;c:18804;01.01.2003;;24.04.2015;c:18804;security;2;5
129;Transpond;CA;San Francisco;94107;37.782978;-122.394517;;c:14787;01.01.2007;;23.10.2019;c:14787;advertising;2;6
1086;Caterva;IL;Champaign;61820;40.116421;-88.243383;Champaign IL 61820;c:81474;01.01.2008;09.05.2017;;c:81474;social;3;1
607;Innovative Silicon;CA;Santa Clara;95054;37.386778;-121.966277;Santa Clara CA 95054;c:34401;01.01.2002;04.12.2015;;c:34401;other;1;3
660;Kardia Health Systems;MN;Golden Valley;55416;44.96659;-93.331943;Golden Valley MN 55416;c:37934;01.01.2006;26.09.2016;;c:37934;enterprise;1;2
433;Biolex Therapeutics;NC;Pittsboro;27312;35.7259177;-79.1791771;;c:25383;01.01.1997;15.03.2019;;c:25383;biotech;6.75;4
848;Foldrx Pharmaceuticals;MA;Cambridge;2140;42.3751;-71.105616;Cambridge MA 2140;c:49872;01.01.2003;;19.09.2017;c:49872;biotech;7;7
940;Klir Technologies;WA;Seattle;98102;47.603832;-122.330062;Seattle WA 98102;c:58560;01.01.2000;21.06.2019;;c:58560;network_hosting;1;0
1062;MetaCarta;MA;Cambridge;2139;42.36236;-71.099692;;c:7666;01.01.2001;;06.08.2016;c:7666;mobile;7;12
329;Viridity Software;MA;Burlington;1803;42.4871509;-71.1986329;;c:19670;01.01.2008;;25.02.2015;c:19670;software;2;5
616;Devtap;CA;Menlo Park;94025;39.78373;-100.445882;Menlo Park CA 94025;c:35148;01.01.2008;10.07.2018;;c:35148;search;1;2
113;Bebo;CA;San Francisco;94108;37.782103;-122.401116;;c:142;06.01.2005;;25.05.2016;c:142;web;1;30
2;SideTour;NY;New York;10001;40.745064;-73.992637;;c:101312;01.06.2011;;20.02.2018;c:101312;web;2;7
809;SARcode Bioscience;CA;Brisbane;94005;37.680766;-122.399971;Brisbane CA 94005;c:46168;01.01.2006;;19.11.2018;c:46168;biotech;3;9
1070;Lore;NY;New York;10013;40.730646;-73.986614;New York NY 10013;c:78868;01.03.2011;;28.06.2016;c:78868;education;4.6667;5
67;Pelago;WA;Seattle;98101;47.607065;-122.335373;;c:1236;01.12.2005;;14.09.2018;c:1236;mobile;3.3333;18
599;Desk;CA;San Francisco;94105;37.779281;-122.419236;San Francisco CA 94105;c:33949;01.01.2009;;25.05.2018;c:33949;enterprise;4;12
620;Trinity Biosystems;CA;Menlo Park;94025;39.78373;-100.445882;Menlo Park CA 94025;c:35433;01.01.2002;28.10.2015;;c:35433;biotech;4.5;2
285;Virtual Computer;MA;Westford;1886;42.579258;-71.437841;Westford MA 1886;c:17774;01.01.2007;;25.09.2016;c:17774;software;2.5;9
771;Oasys Mobile;NC;Raleigh;27518;35.780398;-78.639099;Raleigh NC 27518;c:44064;01.01.1984;27.08.2018;;c:44064;software;2;1
974;Gamook;CA;Menlo Park;94025;37.41924;-122.208414;;c:6171;01.01.2008;05.11.2016;;c:6171;games_video;1;1
989;Quattro Wireless;MA;Waltham;2453;42.3729;-71.248472;;c:637;01.10.2006;;26.09.2019;c:637;advertising;1.6667;17
533;ShopWell;CA;Palo Alto;94301;37.441537;-122.158332;Palo Alto CA 94301;c:30343;01.01.2008;;10.01.2018;c:30343;web;2;4
632;NewsBasis;CA;San Francisco;94107;37.779281;-122.419236;San Francisco CA 94107;c:36276;01.01.2009;17.06.2016;;c:36276;public_relations;1;3
633;Nexx Systems;MA;Billerica;1821;42.558426;-71.268947;Billerica MA 1821;c:36310;01.01.2001;;12.05.2015;c:36310;semiconductor;1.5;10
1100;5min Media;NY;NY;10003;40.757929;-73.985506;;c:835;01.01.2007;;31.01.2018;c:835;games_video;1.5;11
817;MyCabbage;IL;Chicago;60654;41.875555;-87.624421;Chicago IL 60654;c:46863;01.03.2010;11.02.2017;;c:46863;mobile;3;1
292;Gotuit;MA;Woburn;1801;42.479262;-71.152277;Woburn MA 1801;c:179;01.01.2000;;11.06.2016;c:179;web;1;6
237;TeleCIS Wireless;CA;Campbell;95008;37.288326;-121.945633;Campbell CA 95008;c:16784;01.01.2000;;19.12.2014;c:16784;semiconductor;1;2
1036;Snapette;NY;New York;10013;40.730646;-73.986614;New York NY 10013;c:72750;01.01.2011;;31.12.2017;c:72750;fashion;1;5
702;EmSense;CA;San Francisco;94107;37.779281;-122.419236;San Francisco CA 94107;c:40152;01.01.2004;22.01.2015;;c:40152;hardware;1;6
896;MakerBot;NY;Brooklyn;11217;40.650104;-73.949582;Brooklyn NY 11217;c:54077;01.01.2009;;18.06.2015;c:54077;hardware;6;6
17;Image Space Media;NY;New York;10003;42.712207;-73.203599;;c:10452;01.01.2008;;16.12.2018;c:10452;advertising;3;9
911;Wanderfly;NY;Brooklyn;11222;40.650104;-73.949582;Brooklyn NY 11222;c:55427;01.08.2009;;28.05.2016;c:55427;travel;6;7
323;walkby;IL;Chicago;60654;41.8969173;-87.6435474;;c:195311;01.08.2012;29.12.2014;;c:195311;ecommerce;1;6
422;FameCast;TX;Austin;78702;30.268735;-97.745209;;c:2497;01.01.2007;05.08.2019;;c:2497;games_video;1;5
91;Cassatt;CA;San Jose;95110;37.336191;-121.890583;San Jose CA 95110;c:13465;01.01.2003;;07.02.2016;c:13465;software;3;6
296;VirtuOz;CA;Emeryville;94608;37.782714;-122.39358;;c:17983;01.01.2002;;08.09.2015;c:17983;enterprise;2;18
54;SolFocus;CA;San Jose;95112;37.3987372;-122.0497918;;c:12099;01.11.2005;21.02.2018;;c:12099;cleantech;2.7143;6
866;Nimbula;CA;Mountain View;94041;37.3965713;-122.0836937;;c:51239;01.01.2008;;14.08.2017;c:51239;enterprise;2;8
1047;Giftiki;CA;San Francisco;94107;37.779281;-122.419236;San Francisco CA 94107;c:74743;01.06.2009;;29.05.2016;c:74743;social;2.5;4
631;Storspeed;TX;Austin;78730;30.271129;-97.743699;Austin TX 78730;c:36192;01.01.2007;20.09.2017;;c:36192;software;1;6
341;SpaBooker;NY;New York;10007;40.738567;-73.987199;;c:20313;01.11.2007;;28.11.2016;c:20313;software;4;8
957;Jajah;CA;Mountain View;94043;37.4233896;-122.0899512;;c:60;01.01.2005;;09.02.2018;c:60;mobile;1.3333;19
852;Baxano;CA;San Jose;95134;37.404788;-121.940842;San Jose CA 95134;c:50092;01.01.2005;;06.06.2015;c:50092;medical;6;5
211;RipCode;TX;Richardson;75081;32.959908;-96.70737;;c:1637;06.08.2006;17.10.2018;;c:1637;software;4;10
118;VeteranCentral.com;DC;Washington;20005;38.894955;-77.036646;Washington DC 20005;c:144631;15.12.2011;18.07.2015;;c:144631;social;1;1
920;RippleFunction;MA;Waltham;2452;42.37564;-71.2358;Waltham MA 2452;c:56478;01.03.2010;02.11.2017;;c:56478;advertising;1;3
84;CV Ingenuity;CA;Fremont;;37.54827;-121.988572;Fremont CA 94555-3619;c:131583;01.01.2008;27.01.2018;;c:131583;medical;1;2
126;AdexLink;CA;Campbell;95008;37.288326;-121.945633;Campbell CA 95008;c:146596;16.08.2010;22.12.2014;;c:146596;advertising;1;0
728;Certeon;MA;Burlington;1803;42.504817;-71.195611;Burlington MA 1803;c:42163;01.01.2003;15.10.2016;;c:42163;software;3.5;2
186;Applied Identity;CA;San Francisco;94104;37.779281;-122.419236;San Francisco CA 94104;c:16111;01.01.2002;15.02.2019;;c:16111;advertising;4;2
407;Prenova;GA;Atlanta;30350;33.982967;-84.346041;;c:24274;01.01.2002;;02.03.2017;c:24274;cleantech;1.3333;1
1057;WooMe;CA;San Francisco;92606;37.779281;-122.419236;San Francisco CA 92606;c:763;01.12.2000;;25.09.2016;c:763;web;2.3333;8
1071;HelpMeRent.com;CA;Hollywood;90028;34.102827;-118.32999;Hollywood CA 90028;c:79089;01.10.2010;17.03.2018;;c:79089;real_estate;1;5
755;Mail.com Media Corporation;CA;Los Angeles;90301;34.054935;-118.244476;Los Angeles CA 90301;c:43480;01.01.2004;16.11.2015;;c:43480;web;3;4
61;DubMeNow;VA;Viena;22182;38.916336;-77.230488;;c:12224;01.01.2008;06.01.2017;;c:12224;mobile;1;5
900;Smooth-Stone;TX;Austin;78759;30.409765;-97.75101;Austin TX 78759;c:54488;01.01.2008;13.06.2019;;c:54488;cleantech;1;1
193;ONStor;CA;Campbell;95008;37.2690782;-121.9559995;;c:16181;01.01.2000;;18.05.2017;c:16181;network_hosting;4.6667;6
259;Relationship Analytics;NJ;Hillsborough;8844;40.477604;-74.626824;Hillsborough NJ 8844;c:173118;01.08.2012;12.06.2016;;c:173118;analytics;1;2
184;Summize;VA;Potomac Falls;20165;39.050108;-77.40082;Potomac Falls VA 20165;c:1607;01.11.2006;;08.10.2015;c:1607;search;2;5
1069;JouleX;GA;Atlanta;30305;33.749099;-84.390185;Atlanta GA 30305;c:78759;01.01.2009;;08.04.2015;c:78759;enterprise;5;10
624;Etelos;CA;San Mateo;94403;37.548415;-122.315636;;c:3562;01.05.1999;04.03.2016;;c:3562;enterprise;1;4
675;Make It Work;CA;Santa Barbara;93105;34.491118;-119.808096;Santa Barbara CA 93105;c:38655;01.01.1995;03.05.2019;;c:38655;hardware;1;3
880;MapMyFitness;TX;Austin;78701;30.280148;-97.749908;Austin TX 78701;c:52406;08.02.2007;;28.05.2018;c:52406;health;1.75;13
361;What They Like;CA;San Francisco;94107;37.7776778;-122.3921102;;c:2178;29.08.2007;19.10.2017;;c:2178;web;1;2
29;FetchBack;AZ;Tempe;85281;33.426418;-111.9396;;c:10864;01.04.2007;;03.02.2019;c:10864;advertising;3;13
1136;Sermo;MA;Cambridge;2142;42.364367;-71.078978;;c:934;01.01.2006;;08.04.2016;c:934;health;1.75;15
391;Wi-Chi;OR;Tualatin;97062;45.3774456;-122.7569561;;c:23251;01.01.2008;03.09.2017;;c:23251;semiconductor;1;3
436;Alnara Pharmaceuticals;MA;Cambridge;2139;42.3624253;-71.116031;;c:25600;01.01.2008;;02.11.2016;c:25600;biotech;2;4
821;Braintree;CA;Chicago;60606;37.785053;-122.287295;Chicago CA 60606;c:46943;01.10.2007;;19.12.2017;c:46943;software;3.5;10
171;Virident Systems;CA;Milpitas;;37.421692;-121.894156;;c:15829;01.01.2006;;19.02.2019;c:15829;enterprise;3;25
440;Pearl Therapeutics;CA;Redwood City;94063;37.502169;-122.217727;;c:25737;01.01.2006;;23.04.2019;c:25737;biotech;3.6667;4
507;Lexity;CA;Mountain View;94041;37.388869;-122.072353;Mountain View CA 94041;c:28483;01.08.2009;;08.05.2017;c:28483;enterprise;4;5
351;Diligent Technologies;MA;Framingham;1702;42.276316;-71.419229;Framingham MA 1702;c:21040;01.01.2002;;15.04.2016;c:21040;security;4;3
154;eBillme;NY;Rye Brook;10573;41.019264;-73.683462;Rye Brook NY 10573;c:15458;01.10.2004;26.08.2015;;c:15458;ecommerce;3;2
178;Smilebox;WA;Redmond;98052;47.676378;-122.122155;;c:1590;28.08.2000;;06.10.2019;c:1590;photo_video;3;13
956;B-hive Networks;CA;San Mateo;94403;37.536402;-122.325129;;c:5988;01.01.2005;;22.07.2015;c:5988;software;2;4
611;Hot Potato;NY;Brooklyn;11211;40.650104;-73.949582;Brooklyn NY 11211;c:34549;01.01.2009;;17.05.2015;c:34549;social;16;12
324;Kashless;WA;Seattle;98119;47.6257402;-122.3581623;;c:19538;01.09.2008;03.05.2016;;c:19538;ecommerce;1;1
521;Three Screen Games;PA;Yardley;19067;40.245664;-74.845997;Yardley PA 19067;c:29605;01.01.2009;09.07.2015;;c:29605;games_video;1;3
130;LaunchGram;CA;Mountain View;94041;37.388869;-122.072353;Mountain View CA 94041;c:148139;10.01.2012;;14.06.2018;c:148139;news;1;4
1127;BrightQube;CA;Carlsbad;92009;33.09568;-117.244034;;c:904;01.10.2006;15.11.2017;;c:904;ecommerce;1;3
993;ServiceMesh;CA;Santa Monica;90401;34.019657;-118.487549;Santa Monica CA 90401;c:64694;01.01.2008;;16.06.2017;c:64694;enterprise;1;9
318;Lookery;CA;San Francisco;94108;37.788266;-122.403865;;c:1923;01.08.2007;;03.06.2015;c:1923;web;11.5;12
150;Wantful;CA;San Francisco;94109;37.779281;-122.419236;San Francisco CA 94109;c:152560;01.01.2011;10.06.2019;;c:152560;ecommerce;1;6
1030;Zep Solar;CA;San Rafael;94903;38.021489;-122.519998;San Rafael CA 94903;c:71639;01.01.2009;;16.01.2016;c:71639;cleantech;1;8
999;Help Me Rent Magazine;CA;Hollywood;90028;34.102827;-118.32999;Hollywood CA 90028;c:65601;01.01.2010;22.01.2018;;c:65601;real_estate;1;13
395;MOG;CA;Berkeley;94710;37.872222;-122.268403;;c:2351;01.06.2005;;21.12.2014;c:2351;music;3;12
1015;Loud3r;CA;Pasadena;91105;34.147645;-118.144478;Pasadena CA 91105;c:6854;01.09.2007;20.10.2019;;c:6854;web;1;12
428;Oyster.com;NY;New York;10011;40.7418877;-74.0047466;;c:25306;01.03.2008;;26.06.2017;c:25306;travel;2.25;15
33;LogLogic;CA;San Jose;95134;37.4155698;-121.9486567;;c:10915;01.01.2002;;01.01.2015;c:10915;security;5;15
1024;StyleTrek;NY;New York;10012;40.728425;-73.999882;New York NY 10012;c:70661;01.02.2010;18.02.2018;;c:70661;fashion;6;2
1143;Sequoia Communications;CA;San Diego;92128;32.988247;-117.080769;;c:9668;01.01.2000;03.09.2015;;c:9668;semiconductor;1;3
410;SnapNames;OR;Portland;97201;45.520247;-122.674195;Portland OR 97201;c:2434;01.01.2000;;19.10.2017;c:2434;network_hosting;1;3
877;Simple Star;CA;San Francisco;94107;37.775228;-122.39963;;c:522;01.01.2001;;28.01.2015;c:522;web;1.5;3
48;StyleFeeder;MA;Cambridge;2142;42.3751;-71.105616;Cambridge MA 2142;c:1165;03.05.2006;;30.03.2015;c:1165;ecommerce;1.6667;8
1082;FlashSoft;CA;Sunnyvale;94089;37.36883;-122.03635;Sunnyvale CA 94089;c:80433;25.11.2009;;22.01.2017;c:80433;software;2;6
1075;TrustDegrees;NY;Kenmore;14217;42.961748;-78.870914;Kenmore NY 14217;c:79456;01.03.2011;20.07.2017;;c:79456;web;1;5
256;Symwave;CA;Laguna Niguel;92677;33.553278;-117.6779;;c:17282;01.01.2001;;29.08.2016;c:17282;semiconductor;2.5;4
629;Clearwell Systems;CA;Mountain View;94043;37.398022;-122.049143;;c:3610;06.12.2004;;28.01.2016;c:3610;software;2.5;6
539;Impeva;CA;Mountain View;;37.400945;-122.111318;;c:30667;01.01.2004;22.05.2016;;c:30667;software;1;2
946;Nettle;CA;La Jolla;92037;32.833501;-117.26162;La Jolla CA 92037;c:59054;04.10.2010;23.12.2018;;c:59054;web;3;3
375;CubeTree;CA;Redwood City;94063;37.487259;-122.232217;;c:22721;01.01.2008;;11.04.2019;c:22721;enterprise;1.5;3
367;Infochimps;TX;Austin;78703;30.2734822;-97.7588828;;c:22168;14.07.2009;;15.09.2017;c:22168;enterprise;3;8
51;Songbird;CA;San Francisco;94105;37.787126;-122.39783;;c:1205;01.02.2006;13.11.2016;;c:1205;mobile;1;27
388;SimpleGeo;CA;San Francisco;94103;37.779281;-122.419236;San Francisco CA 94103;c:23139;01.05.2009;;30.11.2015;c:23139;advertising;8.6667;30
870;1000memories;CA;San Francisco;94110;37.779281;-122.419236;San Francisco CA 94110;c:51379;01.07.2010;;19.03.2019;c:51379;web;5;8
384;SensorLogic;TX;Addison;75001;32.958634;-96.823641;;c:23107;01.01.2002;;02.07.2019;c:23107;enterprise;5.3333;4
853;TouristEye;CA;Mountain View;94041;37.388869;-122.072353;Mountain View CA 94041;c:50162;01.02.2010;;29.11.2015;c:50162;travel;4;4
155;Oberon Media;NY;New York;10005;40.730646;-73.986614;New York NY 10005;c:15470;01.01.2003;;01.06.2015;c:15470;games_video;1;16
935;Arroyo Video Solutions;CA;Pleasanton;94588;37.662431;-121.874679;Pleasanton CA 94588;c:58237;01.01.2002;;19.06.2018;c:58237;games_video;5;4
424;Aragon Pharmaceuticals;CA;San Diego;;39.78373;-100.445882;San Diego CA 92130-2042;c:25001;01.01.2009;;02.05.2017;c:25001;biotech;2.5;15
208;#waywire;NY;New York;10005;40.730646;-73.986614;New York NY 10005;c:163104;01.06.2012;;22.03.2019;c:163104;news;5;8
749;Feedtrace;NY;New York;10003;40.729839;-73.991781;New York NY 10003;c:43263;10.08.2009;;28.10.2018;c:43263;web;1;3
645;Five Star Technologies;OH;Cleveland;44131;41.505161;-81.693445;Cleveland OH 44131;c:37173;01.01.1999;14.04.2017;;c:37173;other;3;4
60;Vontoo;IN;Indianapolis;46250;39.914281;-86.076478;;c:12179;01.01.2005;03.04.2019;;c:12179;public_relations;1;10
735;Allurent;MA;Cambridge;2142;42.3751;-71.105616;Cambridge MA 2142;c:42501;01.01.2005;;29.06.2019;c:42501;web;1;4
142;Quantivo;CA;Emeryville;94608;37.5455355;-122.3208802;;c:15017;01.01.2005;;07.11.2017;c:15017;analytics;2;11
260;Crossing Automation;CA;Mountain View;94043;37.431091;-122.099263;;c:17320;01.01.2003;;18.06.2015;c:17320;semiconductor;2;2
250;Scrapblog;CA;San Francisco;94104;25.752358;-80.25468;;c:1716;01.01.2006;;06.08.2018;c:1716;web;1.25;8
987;Yield Software;CA;San Mateo;94402;37.558245;-122.302654;;c:6356;01.01.2007;;30.07.2017;c:6356;advertising;2;7
1029;FlyCast;PA;Lancaster;17603;40.039353;-76.307448;;c:7163;01.01.2006;02.02.2019;;c:7163;mobile;2;3
816;Off & Away;WA;Seattle;98104;39.78373;-100.445882;Seattle WA 98104;c:46835;01.12.2009;;23.10.2018;c:46835;travel;1;3
297;CypherMax;CA;San Jose;95131;37.3969138;-121.8939054;;c:18027;01.01.2000;07.10.2016;;c:18027;hardware;1;1
277;Nexsan;CA;Thousand Oaks;91360;34.185043;-118.878852;;c:17634;01.01.2000;;28.08.2016;c:17634;hardware;2;10
826;Tipping Bucket;UT;Provo;84087;40.233844;-111.658534;Provo UT 84087;c:47341;08.04.2009;13.07.2019;;c:47341;enterprise;1;4
737;Qlusters;CA;Palo Alto;94304;37.416597;-122.154064;Palo Alto CA 94304;c:42610;01.01.2001;19.02.2016;;c:42610;other;5;3
3;Producteev;NY;New York;10001;40.775309;-73.983656;;c:10137;08.07.2008;;14.05.2019;c:10137;software;6;12
830;SpinTheCam;NY;New York;10036;40.759089;-73.987573;New York NY 10036;c:47662;12.02.2010;25.06.2015;;c:47662;games_video;1;1
517;Amalfi Semiconductor;CA;Los Gatos;;37.229676;-121.971225;;c:29387;01.01.2003;;20.12.2016;c:29387;semiconductor;3.3333;5
941;Dormzy;OH;Columbus;43207;39.96226;-83.000706;Columbus OH 43207;c:58696;01.05.2010;16.03.2015;;c:58696;ecommerce;1;2
101;iChange;CA;Pasadena;91105;34.144926;-118.149767;;c:13815;01.01.2008;;26.08.2018;c:13815;health;2;6
908;AppFog;OR;Portland;97204;39.78373;-100.445882;Portland OR 97204;c:55307;01.08.2010;;07.05.2017;c:55307;enterprise;4.5;10
342;HotPads;CA;San Francisco;94104;38.904549;-77.061767;;c:2033;04.05.2005;;17.10.2015;c:2033;web;1;15
775;Sampa;WA;Redmond;98052;47.682233;-122.135521;;c:444;01.03.2005;22.10.2019;;c:444;web;1;3
793;DanceJam;CA;San Francisco;94103;37.781557;-122.407959;;c:454;01.04.2007;05.11.2015;;c:454;games_video;1;4
47;Right90;CA;Foster City;94404;37.571318;-122.267962;;c:11531;01.01.2003;;22.03.2018;c:11531;software;2.6667;5
1043;SocialMedia.com;CA;San Francisco;94107;37.775196;-122.419204;;c:741;01.01.2007;;12.12.2017;c:741;advertising;2.6667;23
657;BuyWithMe;NY;New York;10014;40.730646;-73.986614;New York NY 10014;c:37826;01.03.2009;;28.03.2016;c:37826;ecommerce;1.5;21
1037;Photobucket;CO;Denver;80205;47.601803;-122.332085;;c:7299;01.06.2003;;30.08.2019;c:7299;web;2;35
623;XtremIO;CA;Cupertino;95014;37.320309;-122.05004;Cupertino CA 95014;c:35579;01.01.2009;;18.04.2015;c:35579;enterprise;2;4
359;Level 5 Networks;CA;Sunnyvale;94086;37.36883;-122.03635;Sunnyvale CA 94086;c:21654;01.01.2002;;02.12.2015;c:21654;semiconductor;4;3
927;Votizen;CA;Mountain View;94041;37.388869;-122.072353;Mountain View CA 94041;c:57338;19.03.2009;;30.12.2014;c:57338;web;8.5;6
223;Siimpel Corporation;CA;Arcadia;91006;34.1086325;-118.0215818;;c:16613;01.01.2000;;05.02.2016;c:16613;hardware;4.25;7
590;TalkPlus;CA;San Mateo;94402;37.553743;-122.300246;;c:334;01.02.2004;18.05.2015;;c:334;web;1;6
1109;Napera Networks;WA;Bellevue;98006;47.578174;-122.212731;;c:8527;01.12.2006;;26.11.2017;c:8527;network_hosting;1;3
105;NebuAd;CA;Redwood City;;39.78373;-100.445882;Redwood City CA 94063-2026;c:1389;01.01.2006;10.06.2016;;c:1389;advertising;1;2
559;Tercica;CA;Brisbane;94005;37.674559;-122.385658;;c:31614;01.01.2002;;13.11.2019;c:31614;biotech;1;11
167;Robotgalaxy;NY;New York;10003;40.737216;-73.990947;;c:15709;01.01.2006;21.01.2016;;c:15709;games_video;1;1
983;PasswordBank;CA;Sunnyvale;94085;37.36883;-122.03635;Sunnyvale CA 94085;c:63053;01.01.2008;;08.09.2015;c:63053;software;1;6
1007;SnapTell;CA;Palo Alto;94306;37.433414;-122.128772;;c:668;01.01.2006;;07.04.2016;c:668;software;4;5
1073;Gigi Hill;CA;Yorba Linda;92887;33.87751;-117.727046;Yorba Linda CA 92887;c:79149;01.01.2009;10.02.2015;;c:79149;manufacturing;1;9
248;CloudShield Technologies;CA;Sunnyvale;94089;37.409618;-122.017792;;c:17070;01.01.2000;;21.06.2015;c:17070;software;4.5;11
1039;Instinctiv;NY;New York;10011;40.73901;-73.997259;New York NY 10011;c:7329;01.08.2007;;17.04.2019;c:7329;mobile;2;5
460;Anchor Bay Technologies;CA;Campbell;95008;37.2496346;-121.9665932;;c:26666;01.10.2001;;27.12.2018;c:26666;semiconductor;3;5
584;Waze;CA;Palo Alto;94301;37.441537;-122.158332;Palo Alto CA 94301;c:32475;01.01.2007;;24.02.2018;c:32475;transportation;2.6667;18
916;Aster Data Systems;CA;San Carlos;94070;37.5068854;-122.2475729;;c:5585;01.07.2005;;10.03.2016;c:5585;analytics;4.5;13
949;Diversion;CA;Los Angeles;90024;34.050451;-118.437775;Los Angeles CA 90024;c:59298;01.05.2010;08.08.2018;;c:59298;games_video;2;5
331;Codesion;CA;Palo Alto;94301;37.441537;-122.158332;Palo Alto CA 94301;c:19725;01.01.2002;;22.11.2016;c:19725;software;1;4
652;Xoopit;CA;San Francisco;94110;37.7617955;-122.4092704;;c:3770;01.01.2004;;01.09.2016;c:3770;web;7;4
83;One Block Off the Grid (1BOG);CA;San Francisco;941017;37.792871;-122.400747;;c:13127;01.11.2008;;22.10.2019;c:13127;cleantech;1;8
947;Appature;WA;Seattle;98104;39.78373;-100.445882;Seattle WA 98104;c:59187;01.01.2007;;05.12.2017;c:59187;enterprise;3;6
427;Action Engine;WA;Bellevue;98005;47.631239;-122.16806;;c:253;01.02.2000;;12.09.2019;c:253;mobile;1.4;9
93;Blackwave;MA;Acton;1720;42.49739;-71.416794;;c:1350;01.01.2006;;30.04.2018;c:1350;network_hosting;2.6667;14
453;SoftLayer;TX;Dallas;75244;33.017317;-96.837682;;c:26240;01.01.2005;;16.10.2019;c:26240;network_hosting;1;10
614;Mytopia;CA;Palo Alto;94301;34.007967;-118.489681;;c:3487;01.01.2007;;22.01.2015;c:3487;games_video;2;10
416;JackPot Rewards;MA;Newton;2466;42.337037;-71.251748;;c:2478;01.01.2008;05.08.2018;;c:2478;web;4;7
724;Andigilog;AZ;Tempe;85284;33.414414;-111.909447;Tempe AZ 85284;c:42062;01.01.1996;04.02.2015;;c:42062;semiconductor;7;0
874;BARRX Medical;CA;Sunnyvale;94085;37.36883;-122.03635;Sunnyvale CA 94085;c:51890;01.01.2003;;30.01.2017;c:51890;medical;6;6
264;Power Analog Microelectronics;CA;Santa Clara;95051;37.3767076;-121.997483;;c:17481;01.01.2004;27.09.2019;;c:17481;hardware;1;2
131;Classiphix;OH;Toledo;43607;41.678675;-83.512728;Toledo OH 43607;c:148284;19.09.2009;15.04.2017;;c:148284;ecommerce;1;1
663;StartupDigest;WA;Seattle;98101;47.603832;-122.330062;Seattle WA 98101;c:38095;16.11.2009;;17.02.2019;c:38095;news;1;11
731;WiLinx;CA;Carlsbad;92008;33.158093;-117.350597;Carlsbad CA 92008;c:42227;01.01.2003;05.05.2018;;c:42227;semiconductor;1;0
711;Cohuman;CA;San Francisco;94111;37.779281;-122.419236;San Francisco CA 94111;c:41006;09.10.2009;;17.09.2019;c:41006;enterprise;3;4
488;Correlix;NY;New York;10038;40.707645;-74.010816;;c:27938;01.01.2006;09.08.2016;;c:27938;enterprise;3;5
505;Redwood Systems;CA;Fremont;94538;37.4815098;-121.9453283;;c:28482;01.01.2008;;08.06.2019;c:28482;cleantech;2.25;14
932;OtherInbox;TX;Austin;78701;30.269004;-97.740395;;c:5801;01.01.2008;;16.09.2016;c:5801;messaging;4.75;4
283;M-Factor;CA;San Mateo;94404;37.555962;-122.288006;;c:17738;01.01.2003;;02.09.2019;c:17738;software;3;3
786;Athena Design Systems;CA;Santa Clara;95051;37.354469;-121.990433;Santa Clara CA 95051;c:45112;01.01.2003;15.02.2015;;c:45112;software;6;0
376;Servo Software;CA;San Mateo;94403;37.552262;-122.292146;;c:22726;01.01.2008;;13.02.2017;c:22726;software;1;11
754;Levanta;CA;San Mateo;94402;37.551882;-122.313472;San Mateo CA 94402;c:43458;01.01.1998;25.05.2015;;c:43458;software;1;2
322;EdgeSpring;CA;San Mateo;94401;37.566009;-122.321646;San Mateo CA 94401;c:195233;01.07.2010;;11.12.2018;c:195233;analytics;1.5;15
976;DotSpots;CA;Torrance;90501;33.831671;-118.315766;;c:6219;01.09.2007;30.07.2019;;c:6219;public_relations;1;5
669;about.me;CA;San Francisco;94110;37.755068;-122.418026;;c:38337;05.02.2013;;05.08.2019;c:38337;web;4;21
346;Republic Project;CA;Santa Monica;90291;33.6156634;-111.8931647;;c:20672;01.08.2008;;07.05.2017;c:20672;advertising;5;13
122;Hit Systems;FL;Altamonte Springs;32714;28.66677;-81.392794;;c:14483;01.09.2008;05.06.2018;;c:14483;enterprise;1;2
781;Yamisee;CT;Westport;6880;39.364504;-84.247556;Westport CT 6880;c:44616;01.01.2010;28.04.2016;;c:44616;web;1;2
969;Thinkfuse;WA;Seattle;98109;47.603832;-122.330062;Seattle WA 98109;c:60580;01.08.2010;;20.01.2015;c:60580;enterprise;5;6
37;EchoSign;CA;Palo Alto;94301;37.445326;-122.160671;;c:1111;15.07.2005;;09.10.2015;c:1111;web;1;8
519;PI Corporation;WA;Seattle;98104;47.602416;-122.332614;;c:2955;01.01.2003;;17.07.2018;c:2955;network_hosting;1;2
133;MoveableCode, Inc.;RI;Providence;2903;41.818712;-71.411775;;c:148566;01.01.2010;21.07.2017;;c:148566;mobile;1;3
1022;Daylife;NY;New York;10013;40.643438;-73.886452;;c:703;01.04.2006;;29.04.2018;c:703;enterprise;1.5;16
676;Desktone;MA;Chelmsford;1824;42.599814;-71.367284;Chelmsford MA 1824;c:38721;01.01.2006;;13.01.2016;c:38721;network_hosting;3;6
1074;Pulse;CA;San Francisco;94105;37.779281;-122.419236;San Francisco CA 94105;c:79431;01.05.2010;;26.01.2019;c:79431;news;4.5;23
857;Opzi;CA;San Francisco;94107;37.779281;-122.419236;San Francisco CA 94107;c:50449;01.05.2010;23.12.2015;;c:50449;games_video;1;5
975;Standing Cloud;CO;Boulder;80302;40.011355;-105.274166;Boulder CO 80302;c:61783;01.01.2009;;11.04.2015;c:61783;enterprise;1.5;4
9;Where I've Been;IL;Chicago;60647;41.916619;-87.686634;;c:10199;08.06.2007;;15.07.2017;c:10199;travel;1;3
648;HipChat;CA;San Francisco;94103;37.779281;-122.419236;San Francisco CA 94103;c:37304;01.09.2009;;20.06.2018;c:37304;messaging;3;4
294;ScaleIO;CA;Palo Alto;94301;37.441537;-122.158332;Palo Alto CA 94301;c:179507;01.01.2011;;30.09.2015;c:179507;software;2;1
907;GroupMe;NY;New York;10010;40.730646;-73.986614;New York NY 10010;c:55122;01.05.2010;;24.03.2016;c:55122;messaging;8.5;16
45;WeAre.Us;CA;San Francisco;94110;37.7611016;-122.4160008;;c:11498;01.12.2007;12.12.2014;;c:11498;advertising;3;7
189;Kickfire;CA;Santa Clara;95054;37.381876;-121.95993;;c:16134;01.01.2006;26.07.2019;;c:16134;software;4;4
622;LifeSize, a Division of Logitech;TX;Austin;78746;30.265927;-97.783642;Austin TX 78746;c:35511;01.01.2003;;24.04.2015;c:35511;public_relations;5.5;16
528;CHiL Semiconductor;CA;El Segundo,;;33.916552;-118.397491;;c:30152;01.01.2006;;14.11.2019;c:30152;semiconductor;2.3333;7
477;Aptana;CA;San Mateo;94404;37.5568425;-122.2884881;;c:27339;01.01.2007;;05.05.2015;c:27339;software;2;3
435;Enpirion;NJ;Hampton;8827;40.707045;-74.956003;Hampton NJ 8827;c:25510;01.01.2001;;14.05.2017;c:25510;semiconductor;6;8
594;RFinity;ID;Idaho Falls;83402;43.493525;-112.040092;Idaho Falls ID 83402;c:33519;01.10.2008;11.09.2015;;c:33519;mobile;1;5
730;ecoATM;CA;San Diego;92121;32.901049;-117.192656;San Diego CA 92121;c:42223;02.08.2008;;30.04.2015;c:42223;cleantech;2.6667;6
734;Adura Technologies;CA;San Francisco;94103;37.779281;-122.419236;San Francisco CA 94103;c:42497;01.01.2008;;16.07.2015;c:42497;cleantech;2.6667;5
147;Rhythm NewMedia;CA;Mountain View;;39.78373;-100.445882;Mountain View CA 94040-2573;c:15123;01.01.2005;;02.10.2016;c:15123;advertising;2.6667;28
397;Topsy Labs;CA;San Francisco;94105;37.775196;-122.419204;;c:23588;15.01.2007;;25.06.2018;c:23588;analytics;2.3333;18
667;Digit Wireless;MA;Burlington;1803;42.504817;-71.195611;Burlington MA 1803;c:38273;01.01.2000;04.10.2017;;c:38273;public_relations;1;2
143;Silver Tail Systems;CA;Menlo Park;94025;37.4280877;-122.143368;;c:15018;08.01.2008;;26.10.2018;c:15018;analytics;2.6667;11
649;Tatara Systems;MA;Acton;1720;42.485093;-71.43284;Acton MA 1720;c:37335;01.01.2001;;11.11.2019;c:37335;mobile;2;4
558;Reliant Technologies;CA;Mountain View;94303;37.400115;-122.052208;;c:31559;01.01.2001;;25.05.2017;c:31559;biotech;3;9
1142;Atrua Technologies;CA;Campbell;95008;37.2624049;-121.9577052;;c:9665;01.01.2000;;18.05.2019;c:9665;mobile;3;6
302;Casabi;CA;Campbell;95008;37.293687;-121.934573;;c:18163;01.01.2004;;05.09.2018;c:18163;mobile;2.5;5
114;Peek & Co;NY;New York;10011;40.73901;-73.997259;New York NY 10011;c:14345;01.11.2007;27.04.2018;;c:14345;mobile;1;6
591;Bluefin Labs;MA;Cambridge;2139;42.3751;-71.105616;Cambridge MA 2139;c:33416;01.06.2008;;07.02.2016;c:33416;analytics;3.75;12
701;C2 Microsystems;CA;San Jose;95134;37.404788;-121.940842;San Jose CA 95134;c:40147;01.01.2004;27.06.2016;;c:40147;hardware;3;1
978;GoPollGo;CA;Palo Alto;94301;37.4210225;-122.1377411;;c:62269;01.01.2011;;22.11.2018;c:62269;web;2;5
201;Multigig;CA;Scotts Valley;95066;35.966068;-115.118671;;c:16273;01.01.2003;;12.02.2018;c:16273;semiconductor;3;5
665;Ortiva Wireless;CA;La Jolla;92037;32.833501;-117.26162;La Jolla CA 92037;c:38196;01.01.2004;;24.03.2017;c:38196;mobile;4;9
897;Sometrics;CA;El Segundo;90245;34.048857;-118.251343;;c:5411;01.09.2007;;15.05.2019;c:5411;games_video;3;10
899;Kima Labs;CA;San Francisco;94107;37.7869983;-122.400893;;c:54465;01.01.2010;;24.08.2017;c:54465;mobile;6;3
604;Chronicity;TX;Addison;75001;32.960431;-96.83026;Addison TX 75001;c:34267;01.09.2006;26.05.2018;;c:34267;consulting;1;0
15;Whiskey Media;CA;San Francisco;94111;40.730646;-73.986614;;c:1042;01.10.2007;;21.11.2015;c:1042;web;1;6
270;Jobfox;VA;McLean;22102;38.92719;-77.216969;;c:1756;01.03.2004;;09.01.2019;c:1756;web;2.3333;14
553;Natural Cleaners Colorado;CO;Avon;81620;39.6350086;-106.5213459;;c:31452;01.01.2005;08.07.2019;;c:31452;other;1;0
679;Gaikai;CA;Aliso Viejo;92656;33.570171;-117.710676;Aliso Viejo CA 92656;c:39101;01.11.2008;;22.11.2017;c:39101;games_video;3.6667;21
961;Blue Buzz Network;CA;San Francisco;94110;37.779281;-122.419236;San Francisco CA 94110;c:60186;01.01.2006;08.09.2018;;c:60186;news;1;1
1044;Max-Viz;OR;Portland;97224;45.520247;-122.674195;Portland OR 97224;c:74341;01.01.2001;;09.03.2018;c:74341;hardware;3;3
686;Cotendo;CA;Sunnyvale;94085;37.504764;-122.259568;;c:3950;01.01.2008;;21.08.2016;c:3950;software;3;9
965;Particle Code;CA;Palo Alto;;37.445586;-122.161929;Palo Alto CA 94301-1705;c:60457;01.05.2010;;11.06.2018;c:60457;software;1;3
1068;Flowgram;CA;San Francisco;94103;37.7710177;-122.4025976;;c:7748;01.06.2007;24.05.2015;;c:7748;web;1;1
628;JavaJobs;AR;Little Rock;72201;34.748528;-92.287158;Little Rock AR 72201;c:35903;01.01.1997;06.08.2015;;c:35903;software;1;1
1028;Behance;NY;New York;10012;40.74406;-74.004592;;c:714;01.02.2006;;27.03.2015;c:714;web;8;15
1125;Locu;MA;Cambridge;2142;42.3751;-71.105616;Cambridge MA 2142;c:90087;01.01.2011;;29.10.2019;c:90087;advertising;9;5
1137;dynaTrace software;MA;Waltham;2451;42.391389;-71.270987;;c:9373;01.01.2005;;07.10.2016;c:9373;software;1.6667;5
209;Socialbomb;NY;New York;10010;40.730646;-73.986614;New York NY 10010;c:16343;05.06.2008;;06.03.2018;c:16343;games_video;2;6
99;Imagine Communications;CA;San Diego;92130;32.9388917;-117.2398594;;c:13734;01.01.2005;;04.03.2015;c:13734;software;2.25;17
706;Univa UD;IL;Lisle;60188;41.808458;-88.073008;;c:4060;10.05.2004;;24.01.2019;c:4060;software;5.3333;4
936;Tutorspree;NY;New York;10013;40.7908157;-73.9722939;;c:58420;01.09.2010;15.02.2018;;c:58420;education;5;3
1089;OneRiot;CO;Boulder;80302;40.01621;-105.28131;;c:815;01.01.2006;;22.06.2017;c:815;advertising;3;14
726;Moonshoot;CA;Palo Alto;94303;37.440682;-122.123103;Palo Alto CA 94303;c:42112;01.01.2007;16.10.2016;;c:42112;web;1.5;6
191;ArcSight;CA;Cupertino;95014;37.31679;-122.05079;;c:16178;01.01.2000;;30.04.2016;c:16178;software;6;24
469;AGEIA Technologies;CA;Santa Clara;95051;37.354469;-121.990433;Santa Clara CA 95051;c:27021;01.01.2002;;12.10.2017;c:27021;semiconductor;7;1
742;U.S. Fiduciary;TX;Houston;77046;29.758938;-95.367697;Houston TX 77046;c:43133;01.01.2003;25.04.2018;;c:43133;other;2;4
442;Broadway Networks;CA;San Jose;95110;37.336191;-121.890583;San Jose CA 95110;c:25756;01.01.2006;13.09.2015;;c:25756;public_relations;1;3
290;Xelerated;CA;Santa Clara;95054;59.3352318;18.0571206;;c:17884;01.01.2000;;23.04.2019;c:17884;semiconductor;4.6667;4
347;Oodle;CA;San Mateo;94410;37.563585;-122.324621;;c:208;01.01.2004;;25.03.2015;c:208;social;2;17
28;The Climate Corporation;CA;San Francisco;94103;37.782809;-122.394354;;c:1078;01.01.2006;;28.06.2017;c:1078;cleantech;7.5;28
181;Kosmix;CA;Mountain View;94041;37.3867729;-122.0752224;;c:1600;01.01.2005;;27.01.2018;c:1600;web;2.75;26
53;Xtify Inc.;NY;New York;10003;40.729839;-73.991781;New York NY 10003;c:12071;01.04.2009;;26.08.2015;c:12071;mobile;2;9
414;Limerick BioPharma;CA;South San Francisco;94080;37.658713;-122.399382;;c:24681;01.01.2004;31.05.2018;;c:24681;biotech;1;4
1141;iSkoot;CA;San Francisco;94107;37.780134;-122.396744;;c:96;22.04.2005;;14.05.2015;c:96;mobile;4;10
157;Rudder;TX;Houston;77027;29.739322;-95.444747;;c:15509;01.10.2006;07.07.2016;;c:15509;web;1;3
879;Panvidea;NY;New York;10001;40.750519;-73.993494;New York NY 10001;c:52378;01.01.2007;;20.06.2015;c:52378;games_video;2;5
228;Sway;WI;Middleton;53562;43.090756;-89.522805;;c:167;03.12.2004;20.05.2015;;c:167;advertising;2;6
284;TRAFFIQ;NY;New York;10018;40.7429533;-73.9844611;;c:17758;06.09.2006;;07.07.2018;c:17758;advertising;2.3333;16
1099;Dexterra;WA;Bothell;98021;47.802184;-122.196307;;c:8339;01.01.2000;;29.01.2017;c:8339;mobile;5.6;9
352;CoTweet;CA;San Francisco;94107;37.7405936;-122.3764714;;c:21343;01.01.2009;;18.12.2014;c:21343;advertising;6;9
721;Reef Point Systems;MA;Burlington;1803;42.504817;-71.195611;Burlington MA 1803;c:41747;01.01.1998;24.08.2019;;c:41747;security;2.6667;1
557;Paracor Medical;CA;Sunnyvale;94089;37.408261;-122.01592;;c:31549;01.01.1999;30.03.2016;;c:31549;biotech;1;5
589;Causata;CA;San Francisco;94404;37.556732;-122.288378;;c:33198;01.01.2009;;19.09.2019;c:33198;software;1;12
462;Asempra Technologies;CA;Santa Clara;95054;37.386778;-121.966277;Santa Clara CA 95054;c:26702;01.01.2003;;05.12.2017;c:26702;security;3;4
